EffectID	Name	EffectName	DelayTime	IsOnlyDeactive	EffectType	ParentName	FellowOwnerType	MaxOwnNum	IsCanHide	X	Y	Z	RotationX	RotationY	RotationZ	Duration	IsNeedScaleByModel	SoundID
INT	STRING	STRING	FLOAT	BOOL	BYTE	STRING	INT	INT	BOOL	FLOAT	FLOAT	FLOAT	FLOAT	FLOAT	FLOAT	FLOAT	BOOL	INT
#预留																		
#本行程序不读 动画ID	描述	特效名字	特效延迟时间	是否播放完只失效(0销毁，1不销毁只失效）	特效类别（0一般 1受击红闪烁特效 2范围标示特效）	绑定GameObjet名称（EffectPoint 通用绑定点 CenterPoint 身体中心点 HeadPoint头 LHandPoint左手 RHandPoint右手 LFootPoint左脚 RFootPoint右脚 WeaponL左手武器  WeaponR右手武器）	跟随拥有着的方式（0不跟随拥有者移动和旋转 1跟随拥有者移动和旋转 2只跟随拥有者移动但不跟随旋转 3只跟随拥有者旋转但不跟随移动）	同一特效同时存在的最大数量（-1 表示不作限制）	是否可以被隐藏	坐标X	坐标Y	坐标Z	旋转坐标X	旋转坐标Y	旋转坐标Z	持续时间 0代表循环	是否需要根据模型大小进行缩放	声音ID
1	测试数据 配置时删除	shaolin_attack_001	0.15	0	0	EffectPoint	0	-1	1	-0.044	0.497	4.221	-3.415	280.515	2.658	0.4	0	-1
2	普攻1-青云	qingyun_attack_001	0.35	1	0	EffectPoint	0	-1	1	0	1.2	0	0	0	0	0.5	0	-1
3	普攻2-青云	qingyun_attack_002	0.7	1	0	EffectPoint	0	-1	1	0	1.7	0.2	0	0	0	0.5	0	-1
4	普攻3-青云	qingyun_attack_003	1.7	1	0	EffectPoint	0	-1	1	0	0.8	1.3	90	0	0	1.2	0	-1
5	Xp1-青云男女	xp_qingyun_jineng_001	0.1	0	0	EffectPoint	0	-1	1	0.16	0	3.83	0	131.8172	0	2.1	0	-1
6	Xp2-青云男女	xp_qingyun_jineng_002	0	0	0	EffectPoint	0	-1	1	0.15	0.12	4.78	0	0	0	2.5	0	-1
7	Xp3-青云男女	xp_qingyun_jineng_004	2.75	0	0	EffectPoint	0	-1	1	-0.01	0.12	0.885	-90	0	0	3.5	0	-1
8	Xp4-青云男女	xp_qingyun_wuqidian_001	0	0	0	WeaponR	1	-1	1	0	0	0	0	0	0	5	0	-1
9	新手目标地点指引特效	scene_mubiaozhiyin_001	0	0	0	EffectPoint	0	-1	0	0	0	-4	0	0	0	0	0	-1
10	神剑御雷_start1-青云男(废弃)	qingyun_shenjianyulei_start001	0	0	0	WeaponR	1	-1	1	0	0.2	0	0	0	0	1	0	-1
11	神剑御雷_start2-青云男	qingyun_shenjianyulei_start002	0.1	0	0	EffectPoint	0	-1	1	0.5	3	0.2	0	0	0	1.3	0	-1
12	神剑御雷_loop1-青云女	qingyun_shenjianyulei_loop001	0.2	0	0	EffectPoint	0	-1	1	0	0.1	0	0	0	0	0	0	-1
13	神剑御雷_loop2-青云女	qingyun_shenjianyulei_loop002	0	0	0	EffectPoint	0	-1	1	0	1	0.2	0	0	0	0	0	-1
14	盛冰之寒1-青云女	qingyun_tianxuanbing_001	0	0	0	EffectPoint	0	-1	1	0	0.1	0	0	0	0	2.2	0	-1
15	盛冰之寒2-青云女(废弃)	qingyun_tianxuanbing_002	0	0	0	WeaponR	0	-1	1	0	0	0	0	0	0	0.2	0	-1
16	盛冰之寒3-青云女	qingyun_tianxuanbing_003	0	0	0	EffectPoint	0	-1	1	0	0.1	0	0	0	0	0.8	0	-1
17	通用环形提示-青云	tongyong_huan_001	0	0	2	EffectPoint	1	-1	0	0	0	0	0	0	0	0	0	-1
18	神剑御雷_start1-青云女（废弃）	qingyun_shenjianyulei_start001	0	0	0	WeaponR	1	-1	1	0	0.2	0	0	0	0	1	0	-1
19	神剑御雷_start2-青云女	qingyun_shenjianyulei_start002	0.1	0	0	EffectPoint	0	-1	1	-0.1	3	0.2	0	0	0	1.3	0	-1
20	霜寒雪舞1-青云(废弃)	qingyun_hanshuangxuewu_001	0.3	0	0	EffectPoint	0	-1	1	0	0	0	0	0	0	0	0	-1
21	霜寒雪舞2-青云(废弃)	qingyun_shuanghanxuewu_004	0	0	0	EffectPoint	0	-1	1	0	1	0.5	0	0	0	3	0	-1
22	霜寒雪舞3-青云(废弃)	qingyun_hanshuangxuewu_003	0.2	0	0	EffectPoint	0	-1	1	0	1	0	0	0	0	0.8	0	-1
23	新手目标地点指引特效	scene_mubiaozhiyin_002	0	0	0	EffectPoint	0	-1	0	0	0	0	0	0	0	0	0	-1
24	七劫斩龙诀1-青云	qingyun_qijiezhanlongjue_001	0.15	0	0	EffectPoint	0	-1	1	0	1.8	0.5	0	0	0	1	0	-1
25	七劫斩龙诀2-青云	qingyun_qijiezhanlongjue_002	0.3	0	0	EffectPoint	0	-1	1	0	0.1	3	0	0	0	1	0	-1
26	七劫斩龙诀3-青云	qingyun_qijiezhanlongjue_003	1.2	0	0	EffectPoint	0	-1	1	0	0.7	2	0	0	0	1.7	0	-1
27	通用受击特效	tongyong_shouji_001	0	1	0	CenterPoint	2	2	1	0	0	0	0	0	0	1	0	-1
28	通用冰冻定身特效	debuff_dingshen_001	0	0	0	HeadPoint	2	5	1	0	0	0	0	0	0	0	0	-1
29	普攻1-青云-女	qingyun_attack_001	0.35	1	0	EffectPoint	0	-1	1	0	1.2	0	0	0	0	0.5	0	-1
30	普攻2-青云-女	qingyun_attack_002	0.7	1	0	EffectPoint	0	-1	1	0	1.7	0.2	0	0	0	0.5	0	-1
31	普攻3-青云-女	qingyun_attack_003	1.85	1	0	EffectPoint	0	-1	1	0	0.8	1.2	0	90	90	1.2	0	-1
32	受击红闪烁特效	EmptyEffect	0	0	1	EffectPoint	1	2	1	0	0	0	0	0	0	0.15	0	-1
33	普攻子弹特效1-青云	qingyun_attack_zidan_001	0.3	1	0	EffectPoint	0	-1	1	0	1	0.7	0	0	0	0.3	0	-1
34	普攻子弹特效2-青云	qingyun_attack_zidan_001	0.7	1	0	EffectPoint	0	-1	1	0	1	0.7	0	0	0	0.3	0	-1
35	走路水花	scene_qinggongshuihua_001	0	0	0	EffectPoint	0	-1	1	0	0	0	0	0	0	1	0	-1
36	普攻子弹特效3-青云	qingyun_attack_zidan_003	1.7	1	0	EffectPoint	0	-1	1	0.65	1	0.5	0	0	0	0.2	0	-1
37	法宝UI特效	ui_fabao_001	0	0	0	EffectPoint	0	-1	1	-2.15	0.92	4.24	0	180	0	3	0	-1
38	法宝变坐骑	tongyong_shangfabao_001	0	0	0	EffectPoint	0	2	1	0	1	-1	90	0	0	1	0	-1
39	毒神技能1-尸毒咒-demo	boss_dushen_shiduzhou_001	0.3	0	0	EffectPoint	0	-1	1	0	0.12	0	0	0	0	3	0	-1
40	毒神技能自身-尸毒咒-demo	boss_dushen_shiduzhou_zishen_001	0	0	0	WeaponR	1	-1	1	-0.73	0.1	0	0	0	0	2.7	0	-1
41	毒神技能2-尸毒咒-demo	boss_dushen_shiduzhou_002	0.5	0	0	EffectPoint	0	-1	1	0	2.2	0	0	0	0	0.3	0	-1
42	九幽冥蛇技能-喷毒-demo	boss_jiumingxuanshe_001	0.8	0	0	EffectPoint	0	-1	1	-4	1	1.2	0	0	0	1.4	1	-1
43	普攻子弹特效1-青云	dushen_zidan_001	0.85	0	0	EffectPoint	0	-1	1	-0.235	1	1.169	0	0	0	0	0	-1
44	Xp龙1-青云男女	LongTX	0	0	0	EffectPoint	0	-1	1	0	0	2.58	0	0	0	2	0	-1
45	Xp龙2-青云男女	LongTX01	2.3	0	0	EffectPoint	0	-1	1	0	0	-1.95	0	0	0	0.8	0	-1
46	XP受击特效	tongyong_shouji_001	0.1	0	0	CenterPoint	2	2	1	0	0	0	0	0	0	1	0	-1
47	XP受击红闪烁特效	EmptyEffect	0.15	0	1	EffectPoint	1	2	1	0	0	0	0	0	0	0.1	0	-1
48	毒神死亡特效	boss_dushen_siwang_001	0.1	0	0	EffectPoint	0	1	1	0	0.1	-0.2	0	0	0	4	0	-1
49	通用采集点特效	tongyong_caijidian_001	0	0	0	EffectPoint	0	-1	1	0	0	0	0	0	0	0	0	-1
50	掉落包提示特效-紫	tongyong_diaoluobao_zise_001	0	0	0	EffectPoint	0	-1	1	0	0	0	0	0	0	0	0	-1
51	掉落包提示特效-橙	tongyong_diaoluobao_juse_001	0	0	0	EffectPoint	0	-1	1	0	0	0	0	0	0	0	0	-1
52	掉落包提示特效-红	tongyong_diaoluobao_hong_001	0	0	0	EffectPoint	0	-1	1	0	0	0	0	0	0	0	0	-1
53	受击-冰系	tongyong_shouji_bing_000	0	1	0	CenterPoint	0	2	1	0	0	0	0	0	0	1.5	0	-1
54	受击-闪电系	tongyong_shouji_shandian_001	0	1	0	CenterPoint	2	2	1	0	0	0	0	0	0	1	0	-1
55	受击-天音子弹	tongyong_shouji_zidan_001	0	1	0	CenterPoint	2	2	1	0	0	0	0	0	0	0.5	0	-1
56	通用采集点采集完成特效	buff_caijiwancheng_001	0	0	0	EffectPoint	0	-1	1	0	0	0	0	0	0	1	0	-1
57	幻月洞锁链出现【废弃】	scene_huanyue_suolian_002	0	0	0	EffectPoint	0	-1	1	0	0	0	0	0	0	0.2	0	-1
58	幻月洞锁链持续【废弃】	scene_huanyue_suolian_001	0	0	0	EffectPoint	0	-1	1	0	0	0	0	0	0	0	0	-1
59	幻月洞落雷特效	boss_huanyuemijing_001	0	0	0	EffectPoint	0	-1	1	0	0	0	0	0	0	4	0	-1
60	炼器UI特效	ui_lianqi_01	0	0	0	EffectPoint	0	-1	0	0.43	0.26	6.18	0	0	0	0	0	-1
61	装备吸收UI特效	ui_chuancheng_01	0	0	0	EffectPoint	0	-1	1	0.06	-0.36	5.49	0	0	0	1	0	344
62	灌注UI特效	ui_lianqi_01	0	0	0	EffectPoint	0	-1	0	0	-0.11	5.08	0	0	0	0	0	-1
63	幻月秘境-古镜出生	scene_huanyue_suolian_002	0	0	0	EffectPoint	0	-1	1	0	5.11	0	0	0	0	0.3	0	-1
64	幻月秘境【简单】-镜像1出生	scene_huanyue_suolian_002	0	0	0	EffectPoint	0	-1	1	0.26	0.92	5.11	0	0	0	0.3	0	-1
65	幻月秘境【简单】-镜像1持续	scene_huanyue_suolian_001	0	0	0	EffectPoint	0	-1	1	0.02	5.256	2.061	9.55	1.48	90	0	0	-1
66	幻月秘境【简单】-镜像2出生	scene_huanyue_suolian_002	0	0	0	EffectPoint	0	-1	1	-4.498	0.92	-2.147	0	0	0	0.3	0	-1
67	幻月秘境【简单】-镜像2持续	scene_huanyue_suolian_001	0	0	0	EffectPoint	0	-1	1	1.57	5.47	-0.915	5.02	115.93	90	0	0	-1
68	幻月秘境【简单】-镜像3出生	scene_huanyue_suolian_002	0	0	0	EffectPoint	0	-1	1	0.334	0.92	5.091	0	0	0	0.3	0	-1
69	幻月秘境【简单】-镜像3持续	scene_huanyue_suolian_001	0	0	0	EffectPoint	0	-1	1	-1.44	5.56	-0.76	5.95	-118.3	90	0	0	-1
70	幻月秘境【普通】-镜像1出生	scene_huanyue_suolian_002	0	0	0	EffectPoint	0	-1	1	0.26	0.92	5.11	0	0	0	0.3	0	-1
71	幻月秘境【普通】-镜像1持续	scene_huanyue_suolian_001	0	0	0	EffectPoint	0	-1	1	0.02	5.256	2.061	9.55	1.48	90	0	0	-1
72	幻月秘境【普通】-镜像2出生	scene_huanyue_suolian_002	0	0	0	EffectPoint	0	-1	1	5.25	0.92	-0.48	0	0	0	0.3	0	-1
73	幻月秘境【普通】-镜像2持续	scene_huanyue_suolian_001	0	0	0	EffectPoint	0	-1	1	2.105	5.453	-0.212	9.84	89.93	89.248	0	0	-1
74	幻月秘境【普通】-镜像3出生	scene_huanyue_suolian_002	0	0	0	EffectPoint	0	-1	1	-0.432	0.92	-5.406	0	0	0	0.3	0	-1
75	幻月秘境【普通】-镜像3持续	scene_huanyue_suolian_001	0	0	0	EffectPoint	0	-1	1	-0.05	5.48	-2.21	8.45	178.68	90	0	0	-1
76	幻月秘境【普通】-镜像4出生	scene_huanyue_suolian_002	0	0	0	EffectPoint	0	-1	1	-4.846	0.92	0.176	0	0	0	0.3	0	-1
77	幻月秘境【普通】-镜像4持续	scene_huanyue_suolian_001	0	0	0	EffectPoint	0	-1	1	-1.67	5.69	0.08	7.67	-91.23	90	0	0	-1
78	幻月秘境【困难】-镜像1出生	scene_huanyue_suolian_002	0	0	0	EffectPoint	0	-1	1	0.26	0.92	5.11	0	0	0	0.3	0	-1
79	幻月秘境【困难】-镜像1持续	scene_huanyue_suolian_001	0	0	0	EffectPoint	0	-1	1	0.02	5.256	2.061	9.55	1.48	90	0	0	-1
80	幻月秘境【困难】-镜像2出生	scene_huanyue_suolian_002	0	0	0	EffectPoint	0	-1	1	5.24	0.92	1.8	0	0	0	0.3	0	-1
81	幻月秘境【困难】-镜像2持续	scene_huanyue_suolian_001	0	0	0	EffectPoint	0	-1	1	1.972	5.339	0.622	5.25	69.36	90	0	0	-1
82	幻月秘境【困难】-镜像3出生	scene_huanyue_suolian_002	0	0	0	EffectPoint	0	-1	1	3.66	0.92	-4.159	0	0	0	0.3	0	-1
83	幻月秘境【困难】-镜像3持续	scene_huanyue_suolian_001	0	0	0	EffectPoint	0	-1	1	1.55	5.44	-1.76	6.78	136.98	90	0	0	-1
84	幻月秘境【困难】-镜像4出生	scene_huanyue_suolian_002	0	0	0	EffectPoint	0	-1	1	-2.504	0.92	-4.336	0	0	0	0.3	0	-1
85	幻月秘境【困难】-镜像4持续	scene_huanyue_suolian_001	0	0	0	EffectPoint	0	-1	1	-0.86	5.43	-1.59	7.87	-151.84	90	0	0	-1
86	幻月秘境【困难】-镜像5出生	scene_huanyue_suolian_002	0	0	0	EffectPoint	0	-1	1	-4.559	0.92	1.363	0	0	0	0.3	0	-1
87	幻月秘境【困难】-镜像5持续	scene_huanyue_suolian_001	0	0	0	EffectPoint	0	-1	1	-1.58	5.59	0.42	8.23	-77.72	90	0	0	-1
88	角色升级特效	scene_jueseshengji_001	0	0	0	EffectPoint	0	-1	1	0	0	0	0	0	0	2.6	0	-1
89	摄像机云雾散开特效	scene_yunwusankai_001	0	0	0	EffectPoint	1	1	0	0	-0.31	5.09	0	0	0	4.5	0	-1
90	法术开启UI特效	ui_fashukaiqi_001	0	0	0	EffectPoint	0	-1	0	0	0	5.99	-90	-180	0	4	0	-1
91	炼器成功UI特效	ui_lianqi_chenggong_01	0	0	0	EffectPoint	0	-1	0	0	0	2.09	0	0	0	2	0	-1
92	灌注成功UI特效	ui_guanzhu_chenggong_01	0	0	0	EffectPoint	0	-1	0	0	0	2.09	0	0	0	2	0	-1
93	炼器失败UI特效	ui_lianqi_shibai_01	0	0	0	EffectPoint	0	-1	0	0	0	2.09	0	0	0	2	0	-1
94	灌注失败UI特效	ui_guanzhu_shibai_01	0	0	0	EffectPoint	0	-1	0	0	0	2.09	0	0	0	2	0	-1
95	情网1-合欢	hehuan_jn_yunyu_01	0.2	0	0	EffectPoint	0	-1	1	0	1	0.3	0	0	160	0.3	0	-1
96	情网2-合欢	hehuan_jn_yunyu_02	0.6	0	0	EffectPoint	0	-1	1	0	0	0	0	0	0	0.5	0	-1
97	情网3-合欢	hehuan_jn_yunyu_03	0.7	0	0	EffectPoint	0	-1	1	0	0.9	0.2	10	0	0	1	0	-1
98	旧梦1-合欢女	hehuan_jn_jiumeng_01	0	0	0	EffectPoint	0	-1	1	0	0	-0.2	0	0	0	1.5	0	-1
99	旧梦2-合欢女（废弃）	hehuan_jn_jiumeng_02	0.4	0	0	EffectPoint	0	-1	1	0	1.56	0.7	0	0	0	1.1	0	-1
100	普攻1-合欢	hehuan_jn_pugong_01	0	1	0	WeaponR	2	-1	1	0	0	0	0	0	0	1	0	-1
101	普攻2-合欢	hehuan_jn_pugong_01	0.5	1	0	WeaponR	2	-1	1	0	0	0	0	0	0	1	0	-1
102	普攻3-合欢	hehuan_jn_pugong_02	1	1	0	WeaponR	2	-1	1	0	0	0	0	0	180	1	0	-1
103	普攻4-合欢	hehuan_jn_pugong_02	1	1	0	WeaponL	2	-1	1	0	0	0	0	0	0	1	0	-1
104	江南1-合欢	hehuan_jn_jiangnan_xin_01	0	0	0	EffectPoint	0	-1	1	0	0	0	0	0	0	2.5	0	-1
105	江南2-合欢	hehuan_jn_jiangnan_xin_02	0	0	0	WeaponR	2	-1	1	0	0	0	0	0	0	3.3	0	-1
106	江南3-合欢	hehuan_jn_jiangnan_xin_03	2	0	0	EffectPoint	0	-1	1	0	0	0.96	0	0	0	2	0	-1
107	江南4-合欢（废弃）	hehuan_jn_jiangnan_03	0.3	0	0	EffectPoint	0	-1	1	0	0	0	0	0	0	2	0	-1
108	江南5-合欢（废弃）	hehuan_jn_jiangnan_04	1.1	0	0	EffectPoint	0	-1	1	-1.35	1.928	3.469	0	0	0	0.5	0	-1
109	通用残影特效	tongyong_canying	0	0	0	EffectPoint	1	1	1	0	0	0	0	0	0	0	0	-1
110	普攻1-鬼王	guiwang_attack_001	0.2	1	0	EffectPoint	0	-1	1	0	1	0.52	42	103	357	0.7	0	-1
111	普攻2-鬼王	guiwang_attack_002	0.7	1	0	EffectPoint	0	-1	1	0	1	0.7	0	0	0	1.1	0	-1
112	普攻3-鬼王	guiwang_attack_003	1.2	1	0	EffectPoint	0	-1	1	0	1.4	0.5	48	143	60	0.7	0	-1
113	天魔舞1-鬼王	guiwang_tianmowu_001	0	0	0	EffectPoint	0	-1	1	0	0.2	0	0	0	0	0.7	0	-1
114	天魔舞2-鬼王	guiwang_tianmowu_002	0.6	0	0	EffectPoint	0	-1	1	0	0.2	0	0	0	0	0.7	0	-1
115	火焰刀1-鬼王	guiwang_huoyandao_001	0	0	0	EffectPoint	0	-1	1	0	1	-0.5	0	0	0	0.7	0	-1
116	火焰刀2-鬼王	guiwang_huoyandao_002	0.5	0	0	EffectPoint	0	-1	1	-0.5	0	1.2	0	0	0	1.1	0	-1
117	Xp1-合欢	hehuan_jn_xp_dm	0	0	0	EffectPoint	0	-1	1	0	0	0	0	0	0	1	0	-1
118	Xp2-合欢	hehuan_jn_xp_sf	0	0	0	EffectPoint	0	-1	1	0	0	0	0	0	0	3	0	-1
119	Xp3-合欢	hehuan_jn_xp_bj	3.2	0	0	EffectPoint	0	-1	1	0	0.5	2.23	0	0	0	1	0	-1
120	Xp4-合欢(废弃)	hehuang_jn_jiangnan_04	1.3	0	0	EffectPoint	1	-1	1	-0.403	3.096	0.531	0	0	0	0.5	0	-1
121	修罗斩1-鬼王	guiwang_xiuluozhan_001	0.1	0	0	EffectPoint	0	-1	1	0	1.3	-1	0	90	0	0.6	0	-1
122	修罗斩2-鬼王	guiwang_xiuluozhan_002	1	0	0	EffectPoint	0	-1	1	0	0.1	2	0	0	0	1.5	0	-1
123	修罗斩3-鬼王	guiwang_xiuluozhan_003	1	0	0	EffectPoint	0	-1	1	0	0.1	0	0	0	0	0.5	0	-1
124	通用流血特效	buff_diaoxue_001	0	0	0	HeadPoint	2	1	1	0	0	0	0	0	0	0	0	-1
125	雷音法谕_start-天音	tianyin_jn_leiyinfayu_01	0	0	0	EffectPoint	0	-1	1	0	0	0	0	0	0	1	0	-1
126	雷音法谕_loop-天音	tianyin_jn_leiyinfayu_02	0.9	0	0	EffectPoint	0	-1	1	0	0	0	0	0	0	2.8	0	-1
127	雷音法谕_受击-天音	tianyin_jn_leiyinfayu_03	0	0	0	CenterPoint	0	1	1	0	0	0	0	0	0	0.5	0	-1
128	Xp1-鬼王	xp_guiwang_001	0	0	0	EffectPoint	0	-1	1	0	0	0	0	0	0	3.1	0	-1
129	Xp2-鬼王	xp_guiwang_002	0	0	0	EffectPoint	0	-1	1	0	0	0	0	0	0	3.5	0	-1
130	天舞宝轮_start-天音	tianyin_jn_tianwubaolun_01	0	0	0	EffectPoint	0	-1	1	0	0	0	0	0	0	0.5	0	-1
131	天舞宝轮_loop-天音	tianyin_jn_tianwubaolun_02	0	0	0	EffectPoint	0	-1	1	0	0	0	0	0	0	0	0	-1
132	火焰特效	scene_pobuduishaohuo_001	0	0	0	CenterPoint	2	5	1	0	0	0	0	0	0	3	0	-1
133	六道轮回_loop-天音	tianyin_jn_kuhaiwubian_01	0	0	0	EffectPoint	0	-1	1	0	0	0	0	0	0	0	0	-1
134	六道轮回_子弹1-天音	tianyin_jn_kuhaiwubian_02	0.5	0	0	EffectPoint	0	-1	1	0	1.2	0	0	0	0	0	0	-1
135	唤雷诀_受击1-青云	qingyun_huanleijue_001	0.1	0	0	EffectPoint	2	2	1	0	0.1	0	0	0	0	1	0	-1
136	唤雷诀_受击2-青云	qingyun_huanleijue_002	0	0	0	EffectPoint	2	2	1	0	0.1	0	270	0	0	1.5	0	-1
137	唤雷诀-青云	qingyun_huanleijue_003	0	0	0	EffectPoint	0	-1	1	0	2.8	0.3	90	0	0	1.5	0	-1
138	普攻1-天音	tianyin_jn_sanduanji_01	0.1	1	0	EffectPoint	0	-1	1	0	1.106	0.987	0	0	0	0.15	0	-1
139	普攻2-天音	tianyin_jn_sanduanji_02	0.7	1	0	EffectPoint	0	-1	1	0	1.233	0.981	0	0	0	0.15	0	-1
140	普攻3-天音	tianyin_jn_sanduanji_03	1.2	1	0	EffectPoint	0	-1	1	0	1.219	0.907	0	0	0	0.3	0	-1
141	普攻_子弹1-天音	tianyin_jn_sanduanji_04	0.1	1	0	EffectPoint	0	-1	1	0	1.106	0.987	0	0	0	0	0	-1
142	破魔剑诀1-青云	qingyun_pomojianjue_001	0	0	0	EffectPoint	0	-1	1	0	1	0.5	0	0	0	1.5	0	-1
143	破魔剑诀2-青云	qingyun_pomojianjue_002	0.9	0	0	EffectPoint	0	-1	1	0	0	2.5	0	0	0	2	0	-1
144	破魔剑诀3-青云	qingyun_pomojianjue_003	0.9	0	0	EffectPoint	0	-1	1	0	1.2	0	0	0	0	2	0	-1
145	普攻_子弹2-天音	tianyin_jn_sanduanji_04	0.7	1	0	EffectPoint	0	-1	1	0	1.233	0.981	0	0	0	0	0	-1
146	普攻_子弹3-天音	tianyin_jn_sanduanji_04	1.2	1	0	EffectPoint	0	-1	1	0	1.219	0.907	0	0	0	0	0	-1
147	六道轮回_子弹2-天音	tianyin_jn_kuhaiwubian_02	1.3	0	0	EffectPoint	0	-1	1	0	1.2	0	0	0	0	0	0	-1
148	六道轮回_子弹3-天音	tianyin_jn_kuhaiwubian_02	2.1	0	0	EffectPoint	0	-1	1	0	1.2	0	0	0	0	0	0	-1
149	缠绵1-合欢	hehuan_jn_biying_00	0	0	0	EffectPoint	0	-1	1	0	0	0	0	0	0	1	0	-1
150	缠绵2-合欢	hehuan_jn_biying_01	0	0	0	EffectPoint	2	-1	1	0	0	0	0	0	0	1	0	-1
151	青云武器特效-炼器2级	weapon_jian_lianqi_01	0	0	0	WeaponR	1	-1	1	0	0	0	0	0	0	0	0	-1
152	鬼王武器特效-炼器2级	weapon_ren_lianqi_01	0	0	0	WeaponR	1	-1	1	0	0	0	0	0	0	0	0	-1
153	天音武器特效-炼器2级	weapon_zhang_lianqi_01	0	0	0	WeaponR	1	-1	1	0	0	0	0	0	0	0	0	-1
154	合欢武器特效-炼器2级左手	weapon_huan_lianqi_01	0	0	0	WeaponL	1	-1	1	0	0	0	0	0	0	0	0	-1
155	XP1-天音	xp_skill_tianyin_001	0	0	0	EffectPoint	0	-1	1	0	0	0	0	0	0	3.5	0	-1
156	XP2-天音	xp_skill_tianyin_002	0	0	0	EffectPoint	0	-1	1	0	1.3	0	0	0	0	4.6	0	-1
157	施符瞬发	scene_shifu_shunfa_001	0	0	0	EffectPoint	2	5	1	0	1	0	0	0	0	1	0	-1
158	施符持续	scene_shifu_chixu_001	0	0	0	EffectPoint	2	5	1	0	1	0	0	0	0	0	0	212
159	施符阵法瞬发	scene_shifu_chufa_002	0	0	0	EffectPoint	2	5	1	0	1	0	0	145	0	4	0	211
160	普攻5-合欢	hehuan_jn_pugong_03	1	1	0	EffectPoint	2	-1	1	0	0.7	0	0	0	0	1	0	-1
161	旧梦_受击-合欢	hehuan_jn_jiumeng_bj_01	0	0	0	CenterPoint	0	2	1	0	0	0	0	0	0	1	0	-1
162	旧梦1-合欢男	hehuan_jn_jiumeng_01	0	0	0	EffectPoint	0	-1	1	0	0	0.1	0	0	0	1.5	0	-1
163	旧梦2-合欢男（废弃）	hehuan_jn_jiumeng_02	0.1	0	0	EffectPoint	0	-1	1	0	1.258	1.091	0	0	0	1.1	0	-1
164	法术开启UI特效2	ui_fashukaiqi_000	0	0	0	EffectPoint	0	-1	0	0	0	5.99	-90	-180	0	4	0	-1
165	炼器成功UI特效2	ui_lianqi_chenggong_guocheng001	0	0	0	EffectPoint	0	-1	1	0	0	2.8	0	0	0	1.5	0	-1
166	炼器失败UI特效2	ui_lianqi_shibai_guocheng_001	0	0	0	EffectPoint	0	-1	1	0	0	3.16	0	0	0	1.5	0	-1
167	合欢武器特效-炼器2级右手	weapon_huan_lianqi_01	0	0	0	WeaponR	1	-1	1	0	0	0	0	0	180	0	0	-1
168	青云武器特效-炼器9级	weapon_jian_lianqi_03	0	0	0	WeaponR	1	-1	1	0	0	0	0	0	0	0	0	-1
169	鬼王武器特效-炼器9级	weapon_ren_lianqi_03	0	0	0	WeaponR	1	-1	1	0	0	0	0	0	0	0	0	-1
170	天音武器特效-炼器9级	weapon_zhang_lianqi_03	0	0	0	WeaponR	1	-1	1	0	0	0	0	0	0	0	0	-1
171	合欢武器特效-炼器9级左手	weapon_huan_lianqi_03	0	0	0	WeaponL	1	-1	1	0	0	0	0	0	0	0	0	-1
172	合欢武器特效-炼器9级右手	weapon_huan_lianqi_03	0	0	0	WeaponR	1	-1	1	0	0	0	0	0	180	0	0	-1
173	青云武器特效-炼器15级	weapon_jian_lianqi_06	0	0	0	WeaponR	1	-1	1	0	0	0	0	0	0	0	0	-1
174	鬼王武器特效-炼器15级	weapon_ren_lianqi_06	0	0	0	WeaponR	1	-1	1	0	0	0	0	0	0	0	0	-1
175	天音武器特效-炼器15级	weapon_zhang_lianqi_06	0	0	0	WeaponR	1	-1	1	0	0	0	0	0	0	0	0	-1
176	合欢武器特效-炼器15级左手	weapon_huan_lianqi_06	0	0	0	WeaponL	1	-1	1	0	0	0	0	0	0	0	0	-1
177	合欢武器特效-炼器15级右手	weapon_huan_lianqi_06	0	0	0	WeaponR	1	-1	1	0	0	0	0	0	180	0	0	-1
178	结婚组队buff	buffjiehunqizudui_01	0	0	0	EffectPoint	2	1	1	0	0	0	0	0	0	0	0	-1
179	炎龙斩01-田不易	boss_yanlongzhan_01	0	0	0	EffectPoint	2	-1	1	0	0	0	0	0	0	4.3	0	-1
180	冥蛇刺	boss_dushen_zhaohuan_sf_001	0	0	0	EffectPoint	2	-1	1	0	0	0	0	0	0	2	0	-1
181	召唤出现特效	boss_dushen_zhaohuan_sj_001	0	0	0	EffectPoint	0	-1	1	0	0	0	0	0	0	2	0	-1
182	炎龙斩02-田不易	boss_yanlongzhan_02	0	0	0	EffectPoint	0	-1	1	0	0	0	0	0	0	2.3	0	-1
183	法宝施法通用特效	boss_yanlongzhan_01	0	0	0	EffectPoint	2	-1	1	0	0	0	0	0	0	4.3	0	-1
184	法宝施法通用受击特效	boss_yanlongzhan_03	0	0	0	EffectPoint	2	-1	1	0	0	0	0	0	0	0	0	-1
185	腾龙击01_田不易	boss_tianbuyi_tenglongji_001	0.1	0	0	EffectPoint	0	-1	1	0	0	0	0	0	0	2	0	-1
186	腾龙击02_田不易	boss_tianbuyi_tenglongji_002	0	0	0	EffectPoint	0	-1	1	0	0.1	0	270	0	0	1	0	-1
187	选中目标指示特效	scene_xuanzhongbubiao_touding_001	0	0	0	HeadPoint	2	-1	0	0	0	0	0	0	0	0	0	-1
188	新手目标地点指引特效-首登调朝向版	scene_mubiaozhiyin_001	0	0	0	EffectPoint	0	-1	0	-4	0	0	0	90	0	0	0	-1
189	新手目标地点指引特效-田灵儿加长版	scene_mubiaozhiyin_001	0	0	0	EffectPoint	0	-1	0	0	0	-7	0	0	0	0	0	-1
190	新手目标地点指引特效-醉汉版	scene_mubiaozhiyin_001	0	0	0	EffectPoint	0	-1	0	4	0	1.4	0	250	0	0	0	-1
191	结婚UI特效	ui_jiehunjiemian_001	0	0	0	EffectPoint	0	-1	0	0	-1.07	1.651	0	0	0	15	0	-1
192	结婚烟花特效	scene_jiehunyanhua_001	0	0	0	EffectPoint	0	-1	1	0	0	0	0	0	0	15	0	-1
193	怜影-合欢	hehuan_jn_lianying	0	0	0	EffectPoint	0	-1	1	0	0	0	0	0	0	5	0	-1
194	秋波-合欢	hehuan_jn_qiubo_01	0	0	0	EffectPoint	0	-1	1	0	0	0	0	0	0	2	0	-1
195	秋波受击-合欢	hehuan_jn_qiubo_02	0	0	0	CenterPoint	2	-1	1	0	0	0	0	0	0	2	0	-1
196	激励-合欢	hehuan_jn_jili_01	0	0	0	EffectPoint	0	-1	1	0	0	0	0	0	0	1.8	0	-1
197	幻真-合欢	hehuan_jn_huanzhen_01	0	0	0	EffectPoint	0	-1	1	0	0	0	0	0	0	1.8	0	-1
198	浮光-合欢	hehuan_jn_fuguang_01	0	0	0	EffectPoint	0	-1	1	0	0	0	0	0	0	2	0	-1
199	祈福-合欢	hehuan_jn_qifu_01	0	0	0	EffectPoint	0	-1	1	0	0	0	0	0	0	1.5	0	-1
200	NPC雷电死亡特效	n_leidian_siwang_001	0	0	0	EffectPoint	0	1	1	0	0	0	0	0	0	2.5	0	-1
201	NPC妖瞳死亡特效	n_yaotong_siwang_001	0	0	0	EffectPoint	0	1	1	0	0.38	-0.5	0	-90	90	3	0	-1
202	NPC雷电攻击特效	n_leidian_attack_lian001	0	0	0	EffectPoint	0	1	1	0	1	0	0	0	0	1	0	277
203	NPC妖瞳攻击特效	n_yaotong_attack_lian001	0	0	0	EffectPoint	0	1	1	0	0	0	0	0	0	1	0	-1
204	逍遥游-青云	qingyun_xiaoyaoyou_001	0	0	0	CenterPoint	1	-1	1	0	0	0	0	0	0	1.3	0	-1
205	情缘激活UI特效	ui_qingyuanjihuo_001	0	0	0	EffectPoint	0	-1	0	0	0	2.09	0	0	0	2	0	-1
206	大梵般若-天音	tianyin_jn_dafanbanruo_01	0	0	0	EffectPoint	0	-1	1	0	0	0	0	0	0	1.5	0	-1
207	因果循环-天音	tianyin_jn_yinguoxunhuan_01	0	0	0	EffectPoint	0	-1	1	0	0	0	0	0	0	2	0	-1
208	万象生佛-天音	tianyin_jn_wanxiangshengfo_01	0	0	0	EffectPoint	0	-1	1	0	0	0	0	0	0	3.8	0	-1
209	通用护盾	buff_fangyuzengjia_001	0	0	0	EffectPoint	2	5	1	0	0	0	0	0	0	0	0	-1
210	通用狂暴	buff_kuangbao_001	0	0	0	CenterPoint	2	5	1	0	0	0	0	0	0	0	1	-1
211	通用抗性增加	buff_kangxingzengjia_001	0	0	0	EffectPoint	2	5	1	0	0	0	0	0	0	0	0	-1
212	通用躲闪增加	buff_shanbizenjia_001	0	0	0	EffectPoint	2	5	1	0	0	0	0	0	0	0	0	-1
213	通用防御增加	buff_hudun_001	0	0	0	EffectPoint	2	5	1	0	0	0	0	0	0	0	0	-1
214	通用移速增加	buff_yisuzengjia_001	0	0	0	EffectPoint	2	5	1	0	0	0	0	0	0	0	0	-1
215	通用被嘲讽	debuff_beichaofeng_001	0	0	0	CenterPoint	2	5	1	0	0	0	0	0	0	0	1	-1
216	通用命中降低	debuff_mingzhongjiangdi_001	0	0	0	HeadPoint	2	5	1	0	0	0	0	0	0	0	0	-1
217	通用防御降低	debuff_fangyujiangdi_001	0	0	0	EffectPoint	2	5	1	0	0	0	0	0	0	0	0	-1
218	通云晕眩	debuff_yunxuan_001	0	0	0	HeadPoint	2	5	1	0	0	0	0	0	0	0	0	-1
219	通用抗性降低	debuff_kangxingjiangdi_001	0	0	0	EffectPoint	2	5	1	0	0	0	0	0	0	0	0	-1
220	通用攻击降低	debuff_gongjijiangdi_001	0	0	0	HeadPoint	2	5	1	0	0	0	0	0	0	0	0	-1
221	通用攻击增加	buff_gongjizengjia_001	0	0	0	HeadPoint	2	5	1	0	0	0	0	0	0	0	0	-1
222	净土真言-天音	tianyin_jingtuzhenyan_01	0	0	0	EffectPoint	0	-1	1	0	0	0	0	0	0	5	0	-1
223	净土真言治疗-天音	tianyin_jingtuzhenyan_02	0	0	0	EffectPoint	2	-1	1	0	0	0	0	0	0	1.5	0	216
224	无量真言01-天音	tianyin_jn_wuliangzhenyan_01	0	0	0	EffectPoint	0	-1	1	0	0	0	0	0	0	1	0	-1
225	无量真言02-天音	tianyin_jn_wuliangzhenyan_02	0.65	0	0	EffectPoint	0	-1	1	0	0	0	0	0	0	1.5	0	-1
226	往生咒-天音	tianyin_jn_wangshengzhou_01	0	0	0	EffectPoint	0	-1	1	0	0	0	0	0	0	0	0	-1
227	往生咒复活-天音	tianyin_jn_wangshengzhou_fuhuo	0	0	0	EffectPoint	0	-1	1	0	0	0	0	0	0	2	0	231
228	浮光BUFF-合欢	buff_fuguang_001	0	0	0	EffectPoint	2	-1	1	0	1	0	270	0	90	0	0	-1
229	诵经-天音	tianyin_jn_songjing_01	0	0	0	EffectPoint	0	-1	1	0	0	0	0	0	0	2	0	-1
230	诵经受击-天音	tianyin_jn_songjing_02	0	0	0	EffectPoint	2	2	1	0	0	0	0	0	0	2.5	0	-1
231	破魔秘言-天音	tianyin_jn_pomomiyan_01	0	0	0	EffectPoint	0	-1	1	0	0	0	0	0	0	2	0	-1
232	霸天戮杀01-鬼王	guiwang_batianlusha_001	0.1	0	0	EffectPoint	0	-1	1	0	0	0	0	0	0	1.2	0	-1
233	霸天戮杀02-鬼王	guiwang_batianlusha_002	0.65	0	0	EffectPoint	0	-1	1	0	0.1	1	0	0	0	2.7	0	-1
234	聚灵咒01-鬼王	guiwang_julingzhou_001	0	0	0	EffectPoint	0	-1	1	0	0.1	0	0	0	0	1.8	0	-1
235	聚灵咒02-鬼王	guiwang_julingzhou_002	0.55	0	0	EffectPoint	0	-1	1	0	1	3	0	0	0	1	0	-1
236	冷嘲热讽-鬼王	guiwang_lengchaorefeng_001	0.3	0	0	EffectPoint	0	-1	1	0	0.1	0	0	0	0	1.7	0	-1
237	猛火咒-鬼王	guiwang_menghuozhou_001	0.07	0	0	EffectPoint	0	-1	1	0	0.1	0	0	0	0	1.8	0	-1
238	明王降世01-鬼王	guiwang_mingwangjiangshi_000	0	0	0	EffectPoint	0	-1	1	0	0	0	0	0	0	2.1	0	-1
239	明王降世02-鬼王	guiwang_mingwangjiangshi_001	0.3	0	0	EffectPoint	0	-1	1	0	0	0	0	0	0	1.3	0	-1
240	追风咒-鬼王	guiwang_zhuifengzhou_001	0.23	0	0	EffectPoint	0	-1	1	0	0.3	0	0	0	0	1.2	0	-1
241	六合镜受击	fb_liuhejing_attack_001	0	0	0	CenterPoint	3	2	1	0	0	0	0	0	0	2	0	244
242	六合镜1	fb_liuhejing_001	0	0	0	EffectPoint	0	-1	1	0	0	0	0	0	0	2.2	0	-1
243	六合镜2	fb_liuhejing_001	0	0	0	EffectPoint	0	-1	1	0	0	0	0	0	0	2.2	0	-1
244	轮回珠受击	fb_lunhuizhu_attack_001	0	0	0	EffectPoint	3	2	1	0	1.68	0	0	0	0	2	0	242
245	轮回珠1	fb_lunhuizhu_001	0	0	0	EffectPoint	0	-1	1	0	0	0	0	0	0	2.2	0	-1
246	轮回珠2	fb_lunhuizhu_001	0	0	0	EffectPoint	0	-1	1	0	0	0	0	0	0	2.2	0	-1
247	朱雀印受击	fb_zhuqueyin_attack_001	0	0	0	EffectPoint	0	2	1	0	0	0	0	0	0	3	0	269
248	朱雀印1	fb_zhuqueyin_001	0	0	0	EffectPoint	0	-1	1	0	0	0	0	0	0	2.5	0	-1
249	朱雀印2	fb_zhuqueyin_001	0	0	0	EffectPoint	0	-1	1	0	0	0	0	0	0	2.5	0	-1
250	慑心铃受击	fb_shexinling_attack_001	0	0	0	CenterPoint	3	2	1	0	0	0	0	0	0	2	0	240
251	慑心铃1	fb_shexinling_001	0	0	0	EffectPoint	0	-1	1	0	0	0	0	0	0	2	0	-1
252	慑心铃2	fb_shexinling_001	0	0	0	EffectPoint	0	-1	1	0	0	0	0	0	0	2	0	-1
253	神木骰受击	fb_shenmushai_attack_001	0	0	0	CenterPoint	3	2	1	0	0	0	0	0	0	2	0	267
254	神木骰1	fb_shenmushai_001	0	0	0	EffectPoint	0	-1	1	0	0	0	0	0	0	2	0	-1
255	神木骰2	fb_shenmushai_001	0	0	0	EffectPoint	0	-1	1	0	0	0	0	0	0	2	0	-1
256	BOSS技能通用范围提示特效（圆形）	tongyung_quan_001	0	0	2	EffectPoint	0	-1	0	0	0	0	0	0	0	0	0	-1
257	BOSS技能通用范围提示特效（矩形）	tongyung_kuang_001	0	0	2	EffectPoint	0	-1	0	0	0	0	0	0	0	0	0	-1
258	BOSS技能通用范围提示特效（扇形）	tongyung_shanxing_001	0	0	2	EffectPoint	0	-1	0	0	0	0	0	0	0	0	0	-1
259	BOSS技能通用范围提示特效（环形）	tongyung_huanxing_001	0	0	2	EffectPoint	0	-1	0	0	0	0	0	0	0	0	0	-1
260	BOSS技能通用提示特效3s（废弃）	tongyung_quan_001	0	0	2	EffectPoint	0	-1	0	0	0	0	0	0	0	0	0	-1
261	玄火鉴释放效果	fb_xuanhuojian_001	0	0	0	EffectPoint	0	-1	1	0	0	0	0	0	0	2.5	0	-1
262	玄火鉴BUFF效果	fb_xuanhuojian_002	0	0	0	EffectPoint	1	-1	1	0	0	0	0	0	0	8	0	380
263	噬魂释放	fb_shihun_001	0	0	0	EffectPoint	0	-1	1	0	0	0	0	0	0	2.5	0	-1
264	噬魂受击	fb_shihun_002	0	0	0	CenterPoint	1	2	1	0	0	0	0	0	0	1.5	0	272
265	兽神之叹指引特效1	scene_mubiaozhiyin_shoushen_001	0	0	0	EffectPoint	0	-1	0	0	0	0	0	0	0	0	0	-1
266	兽神之叹指引特效2	scene_mubiaozhiyin_shoushen_001	0	0	0	EffectPoint	0	-1	0	0	0	0	0	90	0	0	0	-1
267	兽神之叹指引特效3	scene_mubiaozhiyin_shoushen_001	0	0	0	EffectPoint	0	-1	0	0	0	0	0	180	0	0	0	-1
268	兽神之叹指引特效4	scene_mubiaozhiyin_shoushen_001	0	0	0	EffectPoint	0	-1	0	0	0	0	0	270	0	0	0	-1
269	秦无炎—万毒云海01	boss_qinwuyan_wanduyunhai_001	0.2	0	0	EffectPoint	0	-1	1	0	1.129	0.677	0	0	0	5	0	282
270	秦无炎—万毒云海02	boss_qinwuyan_wanduyunhai_002	0	0	0	EffectPoint	0	-1	1	0	0	0	0	0	0	4	0	-1
271	秦无炎—万毒云海受击	boss_dushen_shiduzhou_002	0	0	0	CenterPoint	0	2	1	0	0	0	0	0	0	0.5	0	-1
272	李洵—财大气粗01	boss_lixun_caidaqicu_001	0	0	0	EffectPoint	0	-1	1	0	0	0	0	0	0	0.5	0	-1
273	李洵—财大气粗02	boss_lixun_caidaqicu_002	0	0	0	EffectPoint	0	-1	1	0	0	0	0	0	0	5	0	415
274	真元华闪01-青云	qingyun_zhenyuanhuashan_001	0	0	0	EffectPoint	0	-1	1	0	0	0	0	0	0	2	0	-1
275	真元华闪_受击-青云	qingyun_zhenyuanhuashan_002	0	0	0	CenterPoint	0	2	1	0	0	0	0	0	0	1.5	0	291
276	真元护体-青云	qingyun_zhenyuanhuti_001	0.4	0	0	EffectPoint	0	-1	1	0	0.1	0	0	0	0	1.5	0	-1
277	毁天灭地_loop1-鬼王	guiwang_huitianmiedi_001	0	0	0	EffectPoint	0	-1	1	0	0.1	0	0	0	0	0	0	-1
278	毁天灭地_loop2-鬼王	guiwang_huitianmiedi_002	0	0	0	EffectPoint	0	-1	1	0	-1.5	0	0	0	0	0	0	-1
279	毁天灭地_end1-鬼王	guiwang_huitianmiedi_003	0.65	0	0	EffectPoint	0	-1	1	0	0.1	1	0	0	0	2	0	-1
280	毁天灭地_end2-鬼王	guiwang_huitianmiedi_004	0	0	0	EffectPoint	0	-1	1	0	0	0	0	0	0	1	0	-1
281	毁天灭地_end3-鬼王	guiwang_huitianmiedi_005	0.45	0	0	EffectPoint	0	-1	1	0	0	0	0	0	0	2	0	-1
282	御雷精核-御雷	qingyun_shenjianyulei_loop001	0.2	0	0	EffectPoint	0	-1	1	0	0.1	0	0	0	0	0	0	283
283	大悲金轮释放效果	fb_dabeijinlun_001	0	0	0	EffectPoint	0	-1	1	0	0	0	0	0	0	1	0	-1
284	大悲金轮持续效果	fb_dabeijinlun_002	0	0	0	EffectPoint	1	-1	1	0	0	0	0	0	0	0	0	332
285	摄魂释放效果	fb_shehun_001	0	0	0	EffectPoint	0	-1	1	0	0	0	0	0	0	2	0	-1
286	摄魂受击效果	fb_shehun_002	0.5	0	0	EffectPoint	1	-1	1	0	0	0	0	0	0	1.5	0	310
287	绝圣弃智-青云	qingyun_jueshengqizhi_001	0.1	0	0	EffectPoint	0	-1	1	0	0.1	0	0	0	0	2	0	-1
288	真雷法衣01-青云	qingyun_zhenleifayi_001	0	0	0	EffectPoint	0	-1	1	0	0.1	0	0	0	0	1	0	-1
289	真雷法衣02-青云	qingyun_zhenleifayi_002	0.45	0	0	EffectPoint	0	-1	1	0	0.1	0	0	0	0	2	0	-1
290	真雷法衣_BUFF-青云	buff_leidian_001	0	0	0	CenterPoint	2	-1	1	0	0	0	0	0	0	0	0	-1
291	通用BUFF_减速	debuff_jiansu_001	0	0	0	HeadPoint	2	5	1	0	0	0	0	0	0	0	0	-1
292	通用BUFF_魅惑	buff_meihuo_001	0	0	0	HeadPoint	2	5	1	0	0	0	0	0	0	0	0	-1
293	寒冰剑-施法	fb_hanbingjian_001	0	0	0	EffectPoint	1	-1	1	0	0	0	0	0	0	2	0	-1
294	寒冰剑-受击	fb_hanbingjian_attack_001	0	0	0	EffectPoint	1	-1	1	0	0	0	0	0	0	2	0	274
295	伤心花-施法	fb_shangxinhua_001	0	0	0	EffectPoint	1	-1	1	0	0	0	0	0	0	3.5	0	292
297	山河扇-施法	fb_shanheshan_001	0	0	0	EffectPoint	1	-1	1	0	0	0	0	0	0	2	0	-1
298	山河扇-受击	fb_shanheshan_attack_001	0	0	0	CenterPoint	1	-1	1	0	0	0	0	0	0	2	0	312
299	紫金葫芦-施法	fb_zijinhulu_001	0	0	0	EffectPoint	1	-1	1	0	0	0	0	0	0	3.5	0	-1
300	紫金葫芦-受击	fb_zijinhulu_attack_001	0	0	0	EffectPoint	1	-1	1	0	0	0	0	0	0	2	0	276
301	阴阳镜-施法	fb_yinyangjing_001	0	0	0	EffectPoint	1	-1	1	0	0	0	0	0	0	2.5	0	-1
302	阴阳镜-受击	fb_yinyangjing_attack_001	0	0	0	CenterPoint	1	-1	1	0	0	0	0	0	0	2	0	314
303	霜寒雪舞01-青云	qingyun_shuanghanxuewu_004	0.2	0	0	EffectPoint	0	-1	1	0	1	0.5	0	0	0	2	0	-1
304	霜寒雪舞_陷阱01-青云	qingyun_shuanghanxuewu_001	0	0	0	EffectPoint	0	-1	1	0	0.1	0	0	0	0	0	0	412
305	霜寒雪舞_陷阱02-青云	qingyun_shuanghanxuewu_003	0	0	0	EffectPoint	0	-1	1	0	0.1	0	0	0	0	0	0	-1
306	通用BUFF_昏睡	debuff_hunshui_001	0	0	0	HeadPoint	2	5	1	0	0	0	0	0	0	0	0	-1
307	七劫斩龙诀_loop1-青云	qingyun_qijiezhanlongjue_loop001	0	0	0	EffectPoint	0	-1	1	0	0.3	0	0	0	0	0	0	-1
308	七劫斩龙诀_end1-青云	qingyun_qijiezhanlongjue_end001	0.1	0	0	EffectPoint	0	-1	1	0	0.2	-0.5	0	0	0	2	0	-1
309	七劫斩龙诀_end2-青云	qingyun_qijiezhanlongjue_end002	0.75	0	0	EffectPoint	0	-1	1	0	0.4	0	0	0	0	1.5	0	-1
310	树妖缠绕_释放-死灵渊	fb_shexinling_002	0	0	0	EffectPoint	0	-1	1	0	0	0	0	0	0	1	0	-1
311	树妖缠绕_陷阱-死灵渊	boss_shuyao_001	0.5	0	0	EffectPoint	0	-1	1	0	0	0	0	0	0	0	0	-1
312	树妖缠绕_陷阱激活-死灵渊	boss_shuyao_001	0	0	0	EffectPoint	0	-1	1	0	0	0	0	0	0	0	0	-1
313	未名斩1-鬼王	guiwang_weimingzhan_001	0.32	0	0	EffectPoint	0	-1	1	0	0.1	-0.5	0	0	0	1	0	-1
314	未名斩2-鬼王	guiwang_weimingzhan_002	0.85	0	0	EffectPoint	0	-1	1	0	0.1	0	0	0	0	1.5	0	-1
315	未名斩4-鬼王	guiwang_weimingzhan_004	2.1	0	0	EffectPoint	0	-1	1	0	0.1	1.5	0	0	0	1.5	0	-1
316	未名斩3-鬼王	guiwang_weimingzhan_003	1.7	0	0	EffectPoint	0	-1	1	0	2.5	0.5	0	0	0	0.3	0	-1
317	风花雪月1-合欢	hehuan_fenghuaxueyue_001	0.1	0	0	EffectPoint	0	-1	1	0	0.6	0.3	0	0	0	2	0	-1
318	风花雪月2-合欢	hehuan_fenghuaxueyue_002	1.4	0	0	EffectPoint	0	-1	1	0	0.05	-1	0	0	0	2.5	0	-1
319	风花雪月_受击1-合欢	hehuan_fenghuaxueyue_shouji_003	0	0	0	CenterPoint	0	-1	1	0	0	0	0	0	0	1	0	-1
320	风花雪月_受击2-合欢（废弃）	hehuan_fenghuaxueyue_shouji_003	0	0	0	CenterPoint	0	-1	1	0	0	0	0	0	0	1	0	-1
321	幻月洞府-心魔-自爆	boss_zibaoyuanling_001	0	0	0	EffectPoint	0	-1	1	0	0	0	0	0	0	1	0	308
322	帮战战旗引导	scene_shifu_chixu_001	0	0	0	EffectPoint	2	5	1	0	1	0	0	0	0	10	0	212
323	草庙村-尸王-血毒	boss_xuedushiwang_001	3	0	0	EffectPoint	0	-1	1	0	0	0	0	0	0	1.5	0	-1
324	草庙村-尸王-冰毒	boss_bingdushiwang_001	3	0	0	EffectPoint	0	-1	1	0	0	0	0	0	0	2	0	-1
325	草庙村-尸王-蛊毒	boss_gudushiwang_001	0	0	0	EffectPoint	0	-1	1	0	0	0	0	0	0	1.5	0	-1
326	草庙村-尸王-冥毒	boss_mingdushiwang_001	3	0	0	EffectPoint	0	-1	1	0	0	0	0	0	0	2	0	-1
327	草庙村-尸王-冰毒-受击	tongyong_shouji_bing_000	0	0	0	CenterPoint	0	-1	1	0	0	0	0	0	0	3	0	-1
328	草庙村-尸王-蛊毒-受击	boss_dushen_shiduzhou_002	0	0	0	CenterPoint	0	-1	1	0	0	0	0	0	0	1	0	-1
329	草庙村-尸王-冥毒-受击	fb_shexinling_attack_001	0	0	0	CenterPoint	0	-1	1	0	0	0	0	0	0	1	0	-1
330	草庙村-噬血普智-噬血	boss_shixuepuzhi_shixue_001	0	0	0	EffectPoint	0	-1	1	0.3	0.8	0	0	0	0	3	1	-1
331	草庙村-噬血普智-疯狂	boss_shixuepuzhi_fengkuang_001	0	0	0	EffectPoint	0	-1	1	0	0	0	0	0	0	1	0	-1
332	草庙村-噬血普智-噬血-受击	boss_shixuepuzhi_shixue_002	0	0	0	EffectPoint	0	-1	1	0	0	0	0	0	0	2	0	334
333	镇魔古洞-赤眼猪妖-荆棘-施法	boss_dushen_shiduzhou_001	0	0	0	EffectPoint	1	-1	1	0	0	0	0	0	0	2	0	-1
334	镇魔古洞-赤眼猪妖-荆棘-持续	boss_shuyao_001	0	0	0	EffectPoint	1	-1	1	0	0	0	0	0	0	0	0	597
335	镇魔古洞-赤眼猪妖-厚皮-施法	boss_shixuepuzhi_fengkuang_001	1.7	0	0	EffectPoint	1	-1	1	0	0.25	1.5	0	0	0	1.5	0	-1
336	镇魔古洞-赤眼猪妖-厚皮-持续	buff_hudun_001	0	0	0	EffectPoint	1	-1	1	0	0	0	0	0	0	2	0	-1
337	镇魔古洞-八荒玄火兽-撕碎-施法	boss_shenmushai_001	0	0	0	EffectPoint	1	-1	1	0	0	0	0	0	0	2	0	-1
338	镇魔古洞-八荒玄火兽-撕碎-受击	boss_shenmushai_attack_001	0	0	0	CenterPoint	1	-1	1	0	0	0	0	0	0	2	0	-1
339	镇魔古洞-八荒玄火兽-割裂-蓄力	boss_shixuepuzhi_shixue_001	0	0	0	EffectPoint	1	-1	1	0	0	0	0	0	0	2	0	-1
340	镇魔古洞-八荒玄火兽-割裂-施法	boss_zibaoyuanling_001	0	0	0	EffectPoint	1	-1	1	0	0	0	0	0	0	2	0	-1
341	镇魔古洞-八荒玄火兽-割裂-受击	boss_shixuepuzhi_shixue_002	0	0	0	EffectPoint	1	-1	1	0	0	0	0	0	0	2	0	-1
342	镇魔古洞-饕餮-45度-释放	boss_jiumingxuanshe_001	0	0	0	EffectPoint	1	-1	1	-3.69	1.88	2.76	0	0	0	2	0	-1
343	镇魔古洞-饕餮-毒雾-释放	boss_dushen_shiduzhou_001	0.9	0	0	EffectPoint	1	-1	1	0	0	0	0	0	0	2	0	-1
344	镇魔古洞-饕餮-猛击-释放	boss_nianlaoda_weiwoduzun_001	4.2	0	0	EffectPoint	1	-1	1	0	0	2.5	0	0	0	2	0	593
345	金瓶儿-焚香谷相位怪	hehuan_jn_qiubo_01	0	0	0	EffectPoint	0	-1	1	0	0	0	0	0	0	2	0	-1
346	鬼先生-合欢任务相位怪	fb_yinyangjing_attack_001	3	0	0	EffectPoint	0	-1	1	0	1.61	0.36	0	0	0	2	0	-1
347	猴王赤月-逍遥涧相位怪	boss_mingdushiwang_001	0	0	0	EffectPoint	2	-1	1	0	0	0	0	0	0	2	0	-1
348	伏龙鼎-施法	fb_fulongding_001	0	0	0	EffectPoint	2	-1	1	0	0	0	0	0	0	2.5	0	-1
349	伏龙鼎-受击	fb_fulongding_attack_001	0	0	0	EffectPoint	2	-1	1	0	0	0	0	0	0	2	0	321
350	合欢铃-施法	fb_hehuanling_001	0	0	0	EffectPoint	2	-1	1	0	0	0	0	0	0	2.5	0	-1
351	琥珀朱绫-施法	fb_hupozhuling_001	0	0	0	EffectPoint	2	-1	1	0	0	0	0	0	0	2.5	0	-1
352	琥珀朱绫-受击	fb_hupozhuling_attack_001	0	0	0	EffectPoint	2	-1	1	0	0	0	0	0	0	1.5	0	328
353	羽翅-施法	fb_yuchi_001	0	0	0	EffectPoint	2	-1	1	0	0	0	0	0	0	2.5	0	-1
354	羽皇-施法	fb_yuhuang_001	0	0	0	EffectPoint	2	-1	1	0	0	0	0	0	0	2.5	0	-1
355	乾坤青光戒-施法	fb_qiankunqingguangjie_001	0	0	0	EffectPoint	2	-1	1	0	0	0	0	0	0	1	0	-1
356	乾坤青光戒-受击	fb_qiankunqingguangjie_attack_001	0	0	0	CenterPoint	2	-1	1	0	0	0	0	0	0	1	0	326
357	天琊-施法	fb_tianya_001	0	0	0	EffectPoint	2	-1	1	0	0	0	0	0	0	2.5	0	-1
358	天琊-受击	fb_tianya_attack_001	0	0	0	EffectPoint	2	-1	1	0	0	0	0	0	0	2	0	-1
359	紫芒刄-施法	fb_zimangren_001	0	0	0	EffectPoint	2	-1	1	0	0	0	0	0	0	2.5	0	-1
360	紫芒刄-受击	fb_zimangren_attack_001	0	0	0	CenterPoint	2	-1	1	0	0	0	0	0	0	1.2	0	324
361	噬血珠-施法	fb_shixuezhu_001	0	0	0	EffectPoint	2	-1	1	0	0.1	0	0	0	0	1	0	-1
362	通用回血	buff_huixue_001	0	0	0	EffectPoint	2	5	1	0	0	0	0	0	0	0	0	-1
363	噬血珠-持续	fb_shixuezhu_002	0	0	0	EffectPoint	2	-1	1	0	0.1	0	0	0	0	6	0	381
364	幻月洞府-万剑一-斩鬼神	qingyun_qijiezhanlongjue_002	3	0	0	EffectPoint	2	-1	1	0	0	3.98	0	0	0	1.5	0	-1
365	萧肃-相位怪	boss_nianlaoda_weiwoduzun_001	3	0	0	EffectPoint	0	-1	1	0	0	0	0	0	0	3	0	-1
366	观棋-相位怪	boss_shixuepuzhi_fengkuang_001	3	0	0	EffectPoint	0	-1	1	0	0	0	0	0	0	2	0	-1
367	姜老三-死灵渊	boss_jianglaosan_001	0.45	0	0	EffectPoint	0	-1	1	0	1	0.5	0	0	0	2	0	331
368	黑水玄蛇技能-降攻毒-死灵渊	boss_heisexuanshe_001	0	0	0	EffectPoint	0	-1	1	-2	1	1.2	0	0	0	0	1	-1
369	黑水玄蛇技能-远程近程毒-死灵渊	boss_jiumingxuanshe_001	0.4	0	0	EffectPoint	0	-1	1	-3	1	-1	0	0	0	1.4	1	-1
370	黑水玄蛇技能-晕眩毒爆炸-死灵渊	fb_yinyangjing_attack_001	0	0	0	EffectPoint	0	-1	1	0	0.1	0	0	0	0	0	0	-1
371	鱼人1-兽神之叹	boss_yuren_aoe_001	0.65	0	0	EffectPoint	0	-1	1	0	0.1	0	0	0	0	3	0	-1
372	白骨蛇妖-兽神之叹	boss_heisexuanshe_001	3	0	0	EffectPoint	0	-1	1	-4	2	1.2	0	0	0	2	0	-1
373	巫妖-兽神之叹	boss_zibaoyuanling_001	3	0	0	EffectPoint	0	-1	1	0	0.1	0	0	0	0	2	0	-1
374	饕餮-兽神之叹	boss_qinwuyan_wanduyunhai_001	4.2	0	0	EffectPoint	0	-1	1	0	0	0	0	0	0	2	0	-1
375	炼血堂入侵-林峰-财大气粗1	boss_lixun_caidaqicu_001	3	0	0	EffectPoint	0	-1	1	0	0	0	0	0	0	0.5	0	-1
376	炼血堂入侵-林峰-财大气粗2	boss_lixun_caidaqicu_002	3.5	0	0	EffectPoint	0	-1	1	0	0	0	0	0	0	0	0	415
377	炼血堂入侵-美艳少妇-天生尤物	boss_tianshengyouwu_001	0.75	0	0	EffectPoint	0	-1	1	0	0.1	0	0	0	0	0.8	0	-1
378	炼血堂逆袭-野狗道人-冷言冷语-受击	fb_yinyangjing_attack_001	0.45	0	0	EffectPoint	0	-1	1	0	1	0.5	0	0	0	2	0	-1
379	炼血堂逆袭-年老大-唯我独尊	boss_nianlaoda_weiwoduzun_001	3	0	0	EffectPoint	0	-1	1	0	0	0	0	0	0	1.5	0	-1
380	青云展示-绝圣弃智-青云	qingyun_jueshengqizhi_001	0.6	0	0	EffectPoint	0	-1	1	0	0.1	0	0	0	0	2	0	-1
381	诛仙剑-施法	fb_zhuxianjian_002	0	0	0	EffectPoint	1	-1	1	0	0	0	0	0	0	1.5	0	-1
382	诛仙剑-受击	fb_zhuxianjian_001	0.6	0	0	EffectPoint	0	-1	1	0	0	0	0	0	0	0	0	378
383	天书开启UI特效	ui_tianshukaiqi_001	0	0	0	EffectPoint	0	-1	0	0	0	5.99	-90	-180	0	3.8	0	-1
384	宠物增益释放	chongwu_tyjn_zengyi_001	0	0	0	EffectPoint	0	-1	1	0	0	0	0	0	0	1.5	0	-1
385	宠物减损释放	chongwu_tyjn_jianyi_001	0	0	0	EffectPoint	0	-1	1	0	0	0	0	0	0	1.5	0	-1
386	宠物增益受击	buff_caijiwancheng_001	0	0	0	EffectPoint	0	-1	1	0	0	0	0	0	0	1.5	0	-1
387	宠物减损受击	boss_dushen_shiduzhou_002	0	0	0	CenterPoint	0	-1	1	0	0	0	0	0	0	1	0	-1
388	获得积分特效	scene_jueseshengji_001	0	0	0	EffectPoint	0	-1	1	0	0	0	0	0	0	2.6	0	-1
389	1杀特效	ui_sharenjishu_001	0	0	0	EffectPoint	0	-1	1	0	2.5	0	0	0	0	1	0	-1
390	2杀特效	ui_sharenjishu_002	0	0	0	EffectPoint	0	-1	1	0	2.5	0	0	0	0	1	0	-1
391	3杀特效	ui_sharenjishu_003	0	0	0	EffectPoint	0	-1	1	0	2.5	0	0	0	0	1	0	-1
392	4杀特效	ui_sharenjishu_004	0	0	0	EffectPoint	0	-1	1	0	2.5	0	0	0	0	1	0	-1
393	5杀特效	ui_sharenjishu_005	0	0	0	EffectPoint	0	-1	1	0	2.5	0	0	0	0	1	0	-1
394	6杀特效	ui_sharenjishu_006	0	0	0	EffectPoint	0	-1	1	0	2.5	0	0	0	0	1	0	-1
395	7杀特效	ui_sharenjishu_007	0	0	0	EffectPoint	0	-1	1	0	2.5	0	0	0	0	1	0	-1
396	8杀特效	ui_sharenjishu_008	0	0	0	EffectPoint	0	-1	1	0	2.5	0	0	0	0	1	0	-1
397	9杀特效	ui_sharenjishu_009	0	0	0	EffectPoint	0	-1	1	0	2.5	0	0	0	0	1	0	-1
398	10杀特效	ui_sharenjishu_010	0	0	0	EffectPoint	0	-1	1	0	2.5	0	0	0	0	1	0	-1
399	称霸全场特效	ui_sharenjishu_010	0	0	0	EffectPoint	0	-1	1	0	2.5	0	0	0	0	1	0	-1
400	野外精英-狐岐山-狐王1	boss_xuanhuojian_001	3	0	0	EffectPoint	0	-1	1	0	0	0	0	0	0	4	0	-1
401	野外精英-狐岐山-狐王2	fb_xuanhuojian_002	3	0	0	EffectPoint	1	-1	1	0	0	0	0	0	0	4	0	380
402	野外精英-逍遥涧-桃夭夭	boss_tianshengyouwu_001	3.2	0	0	EffectPoint	0	-1	1	0	0.1	0	0	0	0	0.8	0	-1
403	野外精英-天音寺-火头陀	boss_zibaoyuanling_001	2.5	0	0	EffectPoint	0	-1	1	0	0.1	0	0	0	0	1	0	-1
404	野外精英-空桑山-蝠王	boss_yewaiguai_juxing_001	3	0	0	EffectPoint	1	-1	1	0	0	0	0	0	0	3	0	-1
405	废弃	fb_shenmushai_attack_001	0.5	0	0	EffectPoint	3	-1	1	0	1	1.5	0	0	0	2	0	-1
406	废弃	fb_liuhejing_attack_001	0.5	0	0	EffectPoint	3	-1	1	0	1	0.5	0	0	0	2	0	-1
407	废弃	fb_hanbingjian_attack_001	0.4	0	0	EffectPoint	1	-1	1	0	0.1	1.5	0	0	0	2	0	-1
408	梦境河阳-魔化田灵儿-万千宠爱	fb_hupozhuling_001	3	0	0	EffectPoint	2	-1	1	0	0	0	0	0	0	2.5	0	-1
409	梦境河阳-魔化道玄-天下正道	fb_zhuxianjian_002	2	0	0	EffectPoint	1	-1	1	0	0	0	0	0	0	1.5	0	-1
410	梦境河阳-秦无炎-万毒云海1	boss_qinwuyan_wanduyunhai_001	0	0	0	EffectPoint	1	-1	1	0	1.129	0.677	0	0	0	0	1	-1
411	梦境河阳-秦无炎-万毒云海2	boss_qinwuyan_wanduyunhai_002	0	0	0	EffectPoint	1	-1	1	0	0	0	0	0	0	0	1	-1
412	结婚请柬UI特效	ui_jiehunjieqingjan_001	0	0	0	EffectPoint	0	-1	0	0	-1.07	1.651	0	0	0	15	0	-1
413	梦境河阳-魔化道玄-天下正道2	fb_zhuxianjian_001	3.6	0	0	EffectPoint	0	-1	1	0	0	0	0	0	0	0	0	-1
414	观棋2-相位怪	tianyin_jn_wuliangzhenyan_02	0.5	0	0	EffectPoint	0	-1	1	0	0	0	0	0	0	2	0	-1
415	鬼先生受击-合欢任务相位怪	fb_shehun_002	0	0	0	EffectPoint	0	-1	1	0	0	0	0	0	0	2	0	-1
416	魔刹罗-相位怪	boss_mingdushiwang_001	3	0	0	EffectPoint	0	-1	1	0	0	0	0	0	0	2	0	-1
417	小七-小池镇相位怪	boss_bingdushiwang_001	3	0	0	EffectPoint	0	-1	1	0	0	0	0	0	0	2	0	-1
418	周隐-大王村相位怪	boss_nianlaoda_weiwoduzun_001	3	0	0	EffectPoint	0	-1	1	0	0	0	0	0	0	2	0	-1
419	通用采集引导特效-左手-loop	tongyong_yd_001	0	0	0	LHandPoint	1	-1	1	-0.1	0	0	0	0	0	0	0	-1
420	通用采集引导特效-右手-loop	tongyong_yd_001	0	0	0	RHandPoint	1	-1	1	-0.1	0	0	0	0	0	0	0	-1
421	通用采集引导特效-脚下-loop	tongyong_yd_002	0	0	0	EffectPoint	0	-1	1	0	0	0	0	0	0	0	0	-1
422	交互传功动作特效-loop	jiaohuchuangong_001	0	0	0	EffectPoint	2	-1	1	0	0.578	0.455	0	0	0	0	0	-1
423	锻造成功UI特效	ui_duanzao_chenggong_01	0	0	0	EffectPoint	0	-1	0	0	0	2.09	0	0	0	2	0	-1
424	交互-亲吻特效	jiaohuqinwen_001	1	0	0	EffectPoint	0	-1	1	0	1.5	0.2	0	0	0	2.5	0	-1
425	战斗力特效-低级	tongyong_zhanlitexiao_di	0	0	0	EffectPoint	2	1	1	0	0	0	0	0	0	0	0	-1
426	战斗力特效-中级	tongyong_zhanlitexiao_zhong	0	0	0	EffectPoint	2	1	1	0	0	0	0	0	0	0	0	-1
427	战斗力特效-高级	tongyong_zhanlitexiao_gao	0	0	0	EffectPoint	2	1	1	0	0	0	0	0	0	0	0	-1
428	换装备特效	tongyong_zhuangbeigenghuan_001	0	0	0	EffectPoint	0	-1	1	0	0	0	0	0	0	1	0	-1
429	聊天栏全屏桃心特效	ui_taoxin_001	0	0	0	EffectPoint	0	-1	0	0	0	1.95	0	0	0	5	0	-1
430	篝火-小	scene_gouhuo_di_001	0	0	0	EffectPoint	0	1	1	0	0	0	0	0	0	0	0	591
431	篝火-中	scene_gouhuo_zhong_001	0	0	0	EffectPoint	0	1	1	0	0	0	0	0	0	0	0	591
432	篝火-大	scene_gouhuo_gao_001	0	0	0	EffectPoint	0	1	1	0	0	0	0	0	0	0	0	591
433	肥龙-升龙霸	boss_feilong_shenglongba_001	0	0	0	EffectPoint	2	-1	1	0	0	0	0	0	0	3	0	-1
434	肥龙-升龙霸受击	boss_feilong_shenglongba_002	0	0	0	EffectPoint	0	-1	1	0	0	0	270	0	0	2	0	427
435	肥龙-卷残云	boss_xionglingheihu_xuanfengzhan_001	0	0	0	EffectPoint	0	-1	1	0	1	0	0	0	0	0	0	-1
436	战斗力特效-最低级	tongyong_zhanlitexiao_zuidi	0	0	0	EffectPoint	2	1	1	0	0	0	0	0	0	0	0	-1
437	李洵-七里峒相位怪	qingyun_qijiezhanlongjue_003	3	0	0	EffectPoint	0	-1	1	0	0	0	0	0	0	2	0	-1
438	黄鸟-死亡沼泽	boss_huangniao_lieri_002	3	0	0	EffectPoint	0	-1	1	0	0	0	0	0	0	3	0	-1
439	青云展示特效	scene_xuanren_qingyun_001	0.6	0	0	EffectPoint	2	-1	1	0	0	0	0	0	0	3	0	-1
440	天音展示特效	scene_xuanren_tianyin_001	0	0	0	EffectPoint	2	-1	1	0	0	0	0	0	0	3	0	-1
441	鬼王展示特效	scene_xuanren_guiwang_001	0	0	0	EffectPoint	2	-1	1	0	0	0	0	0	0	3	0	-1
442	合欢展示特效	scene_xuanren_hehuan_001	0	0	0	EffectPoint	2	-1	1	0	0	0	0	0	0	3	0	-1
443	青云展示特效2	scene_xuanren_qingyun_002	0	0	0	EffectPoint	2	-1	1	0	1	0.7	0	0	0	3	0	-1
444	合欢展示特效2	scene_xuanren_hehuan_003	2	0	0	EffectPoint	2	-1	1	0	0	0	0	0	0	3	0	-1
445	镇魔古洞-凶灵-旋风斩	boss_xionglingheihu_xuanfengzhan_001	0	0	0	EffectPoint	1	-1	1	0	1.2	0	0	0	0	3	0	-1
446	镇魔古洞-凶灵-盾牌猛击	boss_xionglingheihu_dunpaimengji_001	0	0	0	EffectPoint	1	-1	1	0	1.3	0	0	0	0	3	0	-1
447	镇魔古洞-凶灵-重斩	boss_shixuepuzhi_shixue_002	0.5	0	0	EffectPoint	1	-1	1	0	0	1.3	0	0	0	3	0	-1
448	镇魔古洞-巫妖-黑炎	boss_heiyan_001	0	0	0	EffectPoint	1	-1	1	0	0.1	0	0	0	0	0	0	594
449	镇魔古洞-巫妖-瘴气	boss_heisexuanshe_tishi001	0	0	0	EffectPoint	1	-1	1	0	0.1	0	0	0	0	0	0	390
450	镇魔古洞-兽神-血咒	boss_xuedushiwang_001	0	0	0	EffectPoint	1	-1	1	0	0.1	0	0	0	0	3	0	-1
451	镇魔古洞-兽神-焚炎	boss_shoushen_fenyan_001	0	0	0	EffectPoint	1	-1	1	0	1	1	0	0	0	0	0	-1
452	镇魔古洞-魔化兽神-黑煞	boss_jianglaosan_001	0	0	0	EffectPoint	1	-1	1	0	0.1	0	0	0	0	3	0	630
453	镇魔古洞-魔化兽神-愤怒	boss_yuhuang_001	0	0	0	EffectPoint	1	-1	1	0	0.1	0	0	0	0	3	0	-1
454	镇魔古洞-白骨蛇妖-扫击	boss_heisexuanshe_001	0.8	0	0	EffectPoint	1	-1	1	-4	2	0	0	0	0	3	0	-1
455	镇魔古洞-八荒玄火兽-撕碎	boss_shixuepuzhi_fengkuang_001	0.5	0	0	EffectPoint	1	-1	1	0	0	0.5	0	0	0	3	0	-1
456	镇魔古洞-八荒玄火兽-割裂	boss_shixuepuzhi_fengkuang_001	1.1	0	0	EffectPoint	1	-1	1	0	0	0	0	0	0	3	0	-1
457	镇魔古洞-饕餮-毒雾-释放	boss_jiumingxuanshe_001	0	0	0	EffectPoint	1	-1	1	-3.69	1.88	2.76	0	0	0	3	0	-1
458	镇魔古洞-黄鸟-烈日-引导	boss_huangniao_lieri_001	0	0	0	EffectPoint	1	-1	1	0	0.1	0	0	0	0	0	0	-1
459	镇魔古洞-黄鸟-烈日-打断爆炸	boss_huangniao_lieri_002	0	0	0	EffectPoint	1	-1	1	0	0.1	0	0	0	0	1.5	0	562
460	镇魔古洞-黄鸟-黄泉召唤-释放	boss_shixuepuzhi_fengkuang_001	0	0	0	EffectPoint	1	-1	1	0	0.1	0	0	0	0	1	0	-1
461	镇魔古洞-黄鸟-黄泉召唤-DEBUFF	boss_huangniao_huangquanzhaohuan_001	0	0	0	EffectPoint	1	-1	1	0	0.1	0	0	0	0	0	0	564
462	镇魔古洞-黄鸟-黄泉召唤-DEBUFF爆炸	boss_zibaoyuanling_001	0	0	0	EffectPoint	1	-1	1	0	0.1	0	0	0	0	1.5	0	565
463	血毒尸王自身特效	n_dushi_xuedu_001	0	0	0	EffectPoint	1	-1	1	0	0	0	0	102.3	0	0	0	-1
464	冰毒尸王自身特效	n_dushi_bingdu_001	0	0	0	EffectPoint	1	-1	1	0	0	0	0	102.3	0	0	0	-1
465	蛊毒尸王自身特效	n_dushi_gudu_001	0	0	0	EffectPoint	1	-1	1	0	0	0	0	102.3	0	0	0	-1
466	冥毒尸王自身特效	n_dushi_mingdu_001	0	0	0	EffectPoint	1	-1	1	0	0	0	0	102.3	0	0	0	-1
467	幻月洞府-万剑一-斩鬼神1	boss_wanjianyi_loop_001	0	0	0	EffectPoint	1	-1	1	0.032	0.31	0.31	0	0	0	3	0	-1
468	幻月洞府-万剑一-斩鬼神2	boss_wanjianyi_end_001	0.3	0	0	EffectPoint	1	-1	1	0	0	0	0	0	0	1.5	0	-1
469	玄火异兽-焚香谷	boss_xuanhuojian_001	3	0	0	EffectPoint	1	-1	1	0	0	0	0	0	0	6	0	-1
470	天音展示特效2	scene_xuanren_tianyin_002	1.3	0	0	EffectPoint	2	2	1	0	0	0	0	0	0	2.5	0	-1
471	炼血堂旗帜特效	n_bangzhan_qizi_001	0	0	0	EffectPoint	0	2	1	0	0	0	0	0	0	20	0	-1
472	镇魔古洞-饕餮-召唤-释放	tongyong_zhaohuan_yuanling_001	0	0	0	EffectPoint	1	-1	1	0	0	0	0	0	0	1.5	0	-1
473	野外精英-矩形特效	boss_yewaiguai_juxing_001	2	0	0	EffectPoint	1	-1	1	0	0	0	0	0	0	3	0	-1
474	野外精英-扇形特效	boss_wanjianguizong_001	2	0	0	EffectPoint	0	-1	1	0	0	0	0	0	0	1.5	0	-1
475	镇魔古洞-巫妖-瘴气-陷阱	boss_nianlaoda_weiwoduzun_001	2	0	0	EffectPoint	0	-1	1	0	0	0	0	0	0	1.5	0	-1
476	聊天栏全屏烟花特效	ui_caidai_001	0	0	0	EffectPoint	0	-1	0	0	0	1.95	0	0	0	5	0	-1
478	镇魔古洞-凶灵-盾牌猛击2	boss_xionglingheihu_dunpaimengji_002	1.3	0	0	EffectPoint	1	-1	1	0	1.3	0	0	0	0	3	0	-1
479	镇魔古洞-八荒玄火兽-割裂2	boss_zibaoyuanling_001	1.1	0	0	EffectPoint	1	-1	1	0	0	2.5	0	0	0	3	0	-1
480	镇魔古洞-愤怒	boss_jianglaosan_001	0.45	0	0	EffectPoint	0	-1	1	0	1	0.5	0	0	0	2	0	331
481	神剑御雷_loop1-怪物	boss_shenjianyulei_loop001	0.2	0	0	EffectPoint	0	-1	1	0	0.1	0	0	0	0	0	0	-1
482	青云武器特效-炼器6级	weapon_jian_lianqi_02	0	0	0	WeaponR	1	-1	1	0	0	0	0	0	0	0	0	-1
483	鬼王武器特效-炼器6级	weapon_ren_lianqi_02	0	0	0	WeaponR	1	-1	1	0	0	0	0	0	0	0	0	-1
484	天音武器特效-炼器6级	weapon_zhang_lianqi_02	0	0	0	WeaponR	1	-1	1	0	0	0	0	0	0	0	0	-1
485	合欢武器特效-炼器6级左手	weapon_huan_lianqi_02	0	0	0	WeaponL	1	-1	1	0	0	0	0	0	0	0	0	-1
486	合欢武器特效-炼器6级右手	weapon_huan_lianqi_02	0	0	0	WeaponR	1	-1	1	0	0	0	0	0	180	0	0	-1
487	青云武器特效-炼器11级	weapon_jian_lianqi_04	0	0	0	WeaponR	1	-1	1	0	0	0	0	0	0	0	0	-1
488	鬼王武器特效-炼器11级	weapon_ren_lianqi_04	0	0	0	WeaponR	1	-1	1	0	0	0	0	0	0	0	0	-1
489	天音武器特效-炼器11级	weapon_zhang_lianqi_04	0	0	0	WeaponR	1	-1	1	0	0	0	0	0	0	0	0	-1
490	合欢武器特效-炼器11级左手	weapon_huan_lianqi_04	0	0	0	WeaponL	1	-1	1	0	0	0	0	0	0	0	0	-1
491	合欢武器特效-炼器11级右手	weapon_huan_lianqi_04	0	0	0	WeaponR	1	-1	1	0	0	0	0	0	180	0	0	-1
492	青云武器特效-炼器13级	weapon_jian_lianqi_05	0	0	0	WeaponR	1	-1	1	0	0	0	0	0	0	0	0	-1
493	鬼王武器特效-炼器13级	weapon_ren_lianqi_05	0	0	0	WeaponR	1	-1	1	0	0	0	0	0	0	0	0	-1
494	天音武器特效-炼器13级	weapon_zhang_lianqi_05	0	0	0	WeaponR	1	-1	1	0	0	0	0	0	0	0	0	-1
495	合欢武器特效-炼器13级左手	weapon_huan_lianqi_05	0	0	0	WeaponL	1	-1	1	0	0	0	0	0	0	0	0	-1
496	合欢武器特效-炼器13级右手	weapon_huan_lianqi_05	0	0	0	WeaponR	1	-1	1	0	0	0	0	0	180	0	0	-1
497	技能切换UI特效	ui_qiehuanfangan_001	0	0	0	EffectPoint	0	-1	0	3.7	0	8.9	0	0	0	3.2	0	607
498	四灵幡-施法	fb_silingfan_001	0	0	0	EffectPoint	2	-1	1	0	0	0	0	0	0	2.5	0	-1
499	多情环-施法	fb_duoqinghuan_001	0	0	0	EffectPoint	2	-1	1	0	0	1	0	0	0	2.5	0	-1
500	结婚组队buff	buffjiehunqizudui_01	0	0	0	EffectPoint	2	1	1	0	0	0	0	0	0	0	0	-1
501	神武天极塔-林惊羽-斩鬼神_loop	boss_wanjianyi_loop_001	0	0	0	EffectPoint	1	-1	1	0.032	1.5	0.31	0	0	0	0	0	-1
502	神武天极塔-林惊羽-斩鬼神_end	boss_wanjianyi_end_001	0.3	0	0	EffectPoint	1	-1	1	0	0	0	0	0	0	1.5	0	-1
503	神武天极塔-林惊羽-斩龙飞剑	qingyun_qijiezhanlongjue_003	0	0	0	EffectPoint	0	-1	1	0	0.7	2	0	0	0	1.7	0	-1
504	神武天极塔-玉阳子-阴阳相生	fb_yinyangjing_001	0	0	0	EffectPoint	1	-1	1	0	0	0	0	0	0	2.5	0	-1
505	神武天极塔-玉阳子-阴阳相生受击	fb_yinyangjing_attack_001	0	0	0	CenterPoint	1	-1	1	0	0	0	0	0	0	2	0	314
506	神武天极塔-玉阳子-长生无极	boss_nianlaoda_weiwoduzun_001	0.9	0	0	EffectPoint	1	-1	1	0	0	1.5	0	0	0	2	0	612
507	神武天极塔-田不易-腾龙击	boss_tianbuyi_tenglongji_001	0.1	0	0	EffectPoint	0	-1	1	0	0	0	0	0	0	2	0	-1
508	神武天极塔-田不易-腾龙击受击	boss_tianbuyi_tenglongji_002	0	0	0	EffectPoint	0	-1	1	0	0.1	0	270	0	0	1	0	613
509	神武天极塔-田不易-炎龙斩	boss_yanlongzhan_01	0	0	0	EffectPoint	2	-1	1	0	0	0	0	0	0	4.3	0	-1
510	神武天极塔-田不易-炎龙斩受击	boss_yanlongzhan_02	2.3	0	0	EffectPoint	0	-1	1	0	0	0	0	0	0	2.3	0	-1
511	神武天极塔-上官策-九凝玄冰刺	boss_bingdushiwang_001	0	0	0	EffectPoint	0	-1	1	0	0	0	0	0	0	2	0	609
512	神武天极塔-上官策-愤怒	boss_shixuepuzhi_fengkuang_001	0	0	0	EffectPoint	0	-1	1	0	0.1	0	0	0	0	3	0	-1
513	神武天极塔-上官策-戒备	boss_yuhuang_001	0	0	0	EffectPoint	0	-1	1	0	0.1	0	0	0	0	3	0	-1
514	神武天极塔-吸血老妖-噬血蝙蝠	boss_jianglaosan_001	0.7	0	0	EffectPoint	0	-1	1	0	1	0.5	0	0	0	2	0	331
515	神武天极塔-吸血老妖-血咒	boss_xuedushiwang_001	0.6	0	0	EffectPoint	0	-1	1	0	0	0	0	0	0	1.5	0	-1
516	神武天极塔-百毒子-冥毒	boss_dushen_mingsheci_001	0.4	0	0	EffectPoint	0	-1	1	0	0.1	0	0	0	0	4	0	-1
517	神武天极塔-百毒子-冥毒陷阱	boss_shuyao_001	0	0	0	EffectPoint	0	-1	1	0	0.1	0	0	0	0	0	0	597
518	神武天极塔-百毒子-玄毒	fb_shixuezhu_002	0	0	0	EffectPoint	2	-1	1	0	0.1	0	0	0	0	0	0	381
519	神武天极塔-金瓶儿-媚心术	boss_tianshengyouwu_001	0.8	0	0	EffectPoint	0	-1	1	0	0.1	0	0	0	0	0.8	0	-1
520	神武天极塔-金瓶儿-媚心术传播	boss_tianshengyouwu_001	0	0	0	EffectPoint	0	-1	0	0	0.1	0	0	0	0	0.8	0	-1
521	神武天极塔-金瓶儿-蛊惑	boss_hupozhuling_001	0	0	0	EffectPoint	0	-1	1	0	0	0	0	0	0	2.5	0	-1
522	神武天极塔-金瓶儿-蛊惑BUFF	buffjiehunqizudui_01	0	0	0	EffectPoint	2	1	0	0	0	0	0	0	0	0	0	-1
523	神武天极塔-幽姬-死亡之舞	boss_heiyan_001	0	0	0	EffectPoint	2	-1	1	0	0.1	0	0	0	0	0	0	594
524	神武天极塔-幽姬-朱雀印	fb_zhuqueyin_001	0	0	0	EffectPoint	2	-1	1	0	0	0	0	0	0	2.5	0	-1
525	神武天极塔-幽姬-朱雀印受击	fb_zhuqueyin_attack_001	0	0	0	EffectPoint	0	2	1	0	0	0	0	0	0	3	0	269
526	神武天极塔-黑虎凶灵-旋风斩	boss_xionglingheihu_xuanfengzhan_001	0	0	0	EffectPoint	1	-1	1	0	1.2	0	0	0	0	0	0	-1
527	神武天极塔-黑虎凶灵-跳跃1	boss_xionglingheihu_dunpaimengji_001	0	0	0	EffectPoint	1	-1	1	0	1.3	0	0	0	0	3	0	-1
528	神武天极塔-黑虎凶灵-跳跃2	boss_xionglingheihu_dunpaimengji_002	1.3	0	0	EffectPoint	1	-1	1	0	1.3	0	0	0	0	3	0	-1
529	神武天极塔-燕虹-娇艳无双	boss_wanjianguizong_001	0.4	0	0	EffectPoint	0	-1	1	0	0.5	1.5	0	0	0	1.5	0	611
530	神武天极塔-燕虹-心如止水	tianyin_jn_songjing_02	0	0	0	EffectPoint	2	-1	1	0	0	0	0	0	0	2.5	0	618
531	法宝-乾坤轮回盘-释放	fb_xingpan_001	0.2	0	0	EffectPoint	2	-1	1	0	0	0	0	0	0	3	0	-1
532	法宝-乾坤轮回盘-禁食	buff_jinshi_001	0	0	0	HeadPoint	2	-1	1	0	0	0	0	0	0	0	0	-1
533	壁咚墙特效-start	Bidong_Wall_tx	0	0	0	EffectPoint	2	-1	0	0	0	0	0	0	0	2	0	-1
534	壁咚墙特效-loop	Bidong_Wall_tx01	0	0	0	EffectPoint	2	-1	0	0	0	0.92	0	0	0	0	0	-1
535	壁咚墙特效01-start	scene_bidongqiang_001	0	0	0	EffectPoint	2	-1	0	0	0.1	0.7	0	0	0	1	0	-1
536	烛龙之怒-龙炎1	boss_zhulong_longyan_001	0.5	0	0	EffectPoint	0	-1	1	0	0.1	0	0	0	0	2.5	0	-1
537	烛龙之怒-龙炎2	boss_zhulong_longyan_002	3	0	0	EffectPoint	0	-1	1	0	0	0	0	0	0	0.5	0	-1
538	烛龙之怒-龙息	boss_zhulong_longxi_001	0	0	0	EffectPoint	0	-1	1	0	0	0	0	0	0	1.2	0	621
539	烛龙之怒-龙吟1	boss_zhulong_longyin_001	0	0	0	EffectPoint	0	-1	1	0	0	0	0	0	0	2.6	0	-1
540	烛龙之怒-龙吟2	boss_zhulong_longyin_002	0.4	0	0	EffectPoint	0	-1	1	0	3	0	0	0	0	0.7	0	-1
541	烛龙之怒-龙吼	boss_huangniao_lieri_002	0.5	0	0	EffectPoint	0	-1	1	0	0	0	0	0	0	0.5	0	-1
542	烛龙之怒-龙吼-受击	boss_tianbuyi_tenglongji_002	0	0	0	EffectPoint	0	-1	1	0	0	0	0	0	0	1	0	623
543	聊天栏全屏伤心花特效	ui_shangxinhua_001	0	0	0	EffectPoint	0	-1	0	0	0	1.95	0	0	0	5	0	-1
544	斩龙剑-施法	fb_zhanlongjian_001	0	0	0	EffectPoint	0	-1	1	0	0	0	0	0	0	2.5	0	-1
545	斩龙剑-受击	fb_zhanlongjian_attack_001	0	0	0	EffectPoint	2	-1	1	0	0	0	0	0	0	2	0	628
546	鱼人2-兽神之叹	boss_yuren_aoe_002	2.9	0	0	EffectPoint	0	-1	1	0	0.1	0.2	0	0	0	3	0	-1
547	白骨蛇妖_loop-兽神之叹	boss_baiseyaoshe_001	0	0	0	EffectPoint	0	-1	1	-1	0.1	0	0	0	0	0	0	-1
548	白骨蛇妖_end-兽神之叹	boss_baiseyaoshe_002	0.62	0	0	EffectPoint	0	-1	1	0	0.1	0	0	0	0	3	0	-1
549	草庙村-尸王-冰毒_loop	qingyun_shuanghanxuewu_003	0	0	0	EffectPoint	0	-1	1	0	0	0	0	0	0	0	0	-1
550	草庙村-尸王-冰毒_end	boss_bingdushiwang_001	0.5	0	0	EffectPoint	0	-1	1	0	0	0	0	0	0	1.5	0	-1
551	草庙村-尸王-蛊毒_loop	boss_qinwuyan_wanduyunhai_002	0	0	0	EffectPoint	0	-1	1	0	0	0	0	0	0	0	0	-1
552	草庙村-尸王-冥毒_loop	boss_mingdushiwang_loop_001	0	0	0	EffectPoint	0	-1	1	0	0	0	0	0	0	0	0	-1
553	草庙村-尸王-冥毒_end	boss_mingdushiwang_001	0	0	0	EffectPoint	0	-1	1	0	0	0.31	0	0	0	2	0	-1
554	草庙村-尸王-血毒_loop	boss_shixuepuzhi_shixue_001	0	0	0	EffectPoint	0	-1	1	0	0.872	0.407	0	0	0	0	0	-1
555	草庙村-尸王-血毒_end	boss_xuedushiwang_001	0.5	0	0	EffectPoint	0	-1	1	0	0	0	0	0	0	1.5	0	-1
556	野外精英-火头陀1	boss_huotoutuo_huogong_001	0	0	0	EffectPoint	0	-1	1	0	0.1	0	0	0	0	3	0	-1
557	野外精英-火头陀2	boss_huotoutuo_huogong_002	1.55	0	0	EffectPoint	0	-1	1	0	0.1	0	0	0	0	3	0	-1
558	野外精英-蝠王1	boss_yewaiguai_juxing_001	0.5	0	0	EffectPoint	0	-1	1	0	1.34	-0.28	0	0	0	1	0	-1
559	野外精英-蝠王2	boss_yewaiguai_juxing_002	0	0	0	CenterPoint	0	-1	1	0	0	0	0	0	0	1	0	-1
560	野外精英-狐王_loop	boss_zhulong_longyan_001	0	0	0	EffectPoint	0	-1	1	0	0	0	0	0	0	0	0	-1
561	野外精英-狐王_end	boss_huangniao_lieri_002	0.2	0	0	EffectPoint	0	-1	1	0	0	0	0	0	0	2	0	-1
562	梦境河阳-田灵儿-万千宠爱_start	boss_wanqianchongai_001	0.1	0	0	EffectPoint	0	-1	1	0	1	0.5	0	0	0	2	0	631
563	梦境河阳-田灵儿-万千宠爱_end	boss_tianshengyouwu_001	0.1	0	0	EffectPoint	0	-1	1	0	0.1	0	0	0	0	2	0	639
564	炼血堂逆袭-林锋-财大气粗_start	boss_lixun_caidaqicu_003	0	0	0	EffectPoint	0	-1	1	0	0	0.31	0	0	0	2	0	-1
565	炼血堂逆袭-林锋-财大气粗_loop	boss_lixun_caidaqicu_002	0	0	0	EffectPoint	0	-1	1	0	0	0	0	0	0	0	0	415
566	炼血堂逆袭-年老大-惟我独尊_loop	boss_nianlaoda_weiwoduzun_002	0	0	0	EffectPoint	0	-1	1	0	0	0	0	0	0	0	0	-1
567	炼血堂逆袭-年老大-唯我独尊_end	boss_nianlaoda_weiwoduzun_001	0	0	0	EffectPoint	0	-1	1	0	0	0	0	0	0	1.5	0	-1
568	魔神降临-魔化鬼王-聚灵咒	boss_mohuaguiwang_julingzhou_001	0.4	0	0	EffectPoint	1	-1	1	0	0	0	0	0	0	1.5	0	-1
569	魔神降临-魔化碧瑶-痴情血咒	boss_zhulong_longyan_002	0.3	0	0	EffectPoint	0	-1	1	0	0	0	0	0	0	0.5	0	-1
570	魔神降临-魔化陆雪琪-神剑御雷_start	qingyun_shenjianyulei_start002	0.1	0	0	EffectPoint	0	-1	1	0.5	3	0.2	0	0	0	1.3	0	-1
571	魔神降临-魔化陆雪琪-神剑御雷_loop	qingyun_shenjianyulei_loop001	0.2	0	0	EffectPoint	0	-1	1	0	0.1	0	0	0	0	0	0	-1
572	魔神降临-魔化陆雪琪-神剑御雷_end	qingyun_shenjianyulei_loop002	0	0	0	EffectPoint	0	-1	1	0	1	0.2	0	0	0	0	0	-1
573	魔神降临-魔化田灵儿-万千宠爱_start	boss_wanqianchongai_001	0.1	0	0	EffectPoint	0	-1	1	0	1	0.5	0	0	0	2	0	631
574	魔神降临-魔化田灵儿-万千宠爱_end	boss_tianshengyouwu_001	0.1	0	0	EffectPoint	0	-1	1	0	0.1	0	0	0	0	2	0	639
575	魔神降临-魔化林惊羽-七劫斩龙诀_loop	boss_wanjianyi_loop_001	0	0	0	EffectPoint	1	-1	1	0.032	1.5	0.31	0	0	0	0	0	-1
576	魔神降临-魔化林惊羽-七劫斩龙诀_end	boss_wanjianyi_end_001	0.3	0	0	EffectPoint	1	-1	1	0	0	0	0	0	0	1.5	0	-1
577	魔神降临-魔化道玄-诛仙剑阵_start	fb_zhuxianjian_002	0	0	0	EffectPoint	0	-1	1	0	0	0	0	0	0	1.5	0	-1
578	魔神降临-魔化道玄-诛仙剑阵_loop	fb_zhuxianjian_001	0	0	0	EffectPoint	0	-1	1	0	0	0	0	0	0	0	0	-1
579	魔神降临-魔化普智-无量真言	tianyin_jn_wuliangzhenyan_02	0.5	0	0	EffectPoint	0	-1	1	0	0.1	0	0	0	0	1.5	0	-1
580	魔神降临-魔化文敏-万物回春_start	boss_wenmin_wanwuhuichun_001	0	0	0	EffectPoint	0	-1	1	0	0	0	0	0	0	2	0	-1
581	魔神降临-魔化文敏-万物回春_loop	boss_wenmin_wanwuhuichun_002	0	0	0	EffectPoint	0	-1	1	0	0	0	0	0	0	0	0	-1
582	魔神降临-魔化文敏-万物回春_回血buff	buff_huixue_001	0	0	0	EffectPoint	2	-1	1	0	0	0	0	0	0	1	0	-1
583	魔神降临-魔化齐昊-纳阴归渊	boss_mohuashoushen_heisha_001	0	0	0	EffectPoint	0	-1	1	0	0	0	0	0	0	2	0	-1
584	魔神降临-魔化鬼厉-噬魂无双_start	boss_shixuewushuang_003	0	0	0	EffectPoint	0	-1	1	0	0.5	0.5	0	0	0	2	0	-1
585	魔神降临-魔化鬼厉-噬魂无双_loop	boss_shixuewushuang_001	0	0	0	EffectPoint	0	-1	1	0	1	1	0	0	0	0	0	-1
586	魔神降临-魔化鬼厉-噬魂无双_受击	boss_shixuewushuang_002	0	0	0	CenterPoint	2	-1	1	0	0	0	0	0	0	0	0	-1
587	魔神降临-魔化鬼厉-噬魂无双_链	boss_shihunwushuang_lian001	1.33	0	0	EffectPoint	1	-1	1	0	0	0	0	0	0	0	0	-1
588	魔神降临-魔化毒神-万毒云海_释放	boss_yewaiguai_juxing_002	0.2	0	0	EffectPoint	0	-1	1	0	1	1	0	0	0	1.5	0	-1
589	魔神降临-魔化毒神-万毒云海_陷阱	boss_qinwuyan_wanduyunhai_002	0	0	0	EffectPoint	0	-1	1	0	0.1	0	0	0	0	0	0	646
590	魔神降临-魔化魔神-相由心生1	boss_wanqianchongai_001	0	0	0	CenterPoint	2	-1	1	-0.189	0.193	0.142	0	0	0	3	0	-1
591	魔神降临-魔化魔神-相由心生2	boss_tianshengyouwu_001	1	0	0	EffectPoint	0	-1	1	0	1.1	0	0	0	0	2	0	-1
592	魔神降临-魔化秦无炎-扫荡蛮荒_start	boss_huotoutuo_huogong_001	0	0	0	EffectPoint	0	-1	1	0	0.1	0	0	0	0	2	0	-1
593	魔神降临-魔化秦无炎-扫荡蛮荒_loop	boss_huotoutuo_huogong_002	0.1	0	0	EffectPoint	0	-1	1	0	0.1	0	0	0	0	0	0	-1
594	魔神降临-魔化魔神-奴仆降世_释放	boss_nupujiangshi_001	0	0	0	EffectPoint	0	-1	1	0	0.1	0	0	0	0	2	0	-1
595	魔神降临-魔化魔神-奴仆降世_召唤物	tongyong_zhaohuan_yuanling_001	0	0	0	EffectPoint	0	-1	1	0	0	0	0	0	0	2	0	-1
596	魔神降临-魔化魔神-相由心生标记BUFF	buffjiehunqizudui_01	0	0	0	EffectPoint	2	1	1	0	0	0	0	0	0	0	0	-1
597	魔神降临-通用狂暴伤害BUFF	buff_kuangbao_003	0	0	0	EffectPoint	2	2	1	0	0	0	0	0	0	0	0	-1
598	装备雕琢成功特效	ui_diaozhuo_chenggong_01	0	0	0	EffectPoint	0	-1	0	0	0	2.09	0	0	0	3	0	-1
599	装备雕琢失败特效	ui_diaozhuo_shibai_01	0	0	0	EffectPoint	0	-1	0	0	0	2.09	0	0	0	3	0	-1
600	星魂开锁特效	ui_xinghunkaisuo_001	0	0	0	EffectPoint	0	-1	0	0	0	0	0	0	0	3	0	637
601	圣诞快乐烟花特效	scene_yamhua_shengdan_001	0	0	0	EffectPoint	0	-1	1	0	0	0	0	0	0	5	0	649
602	元旦快乐烟花特效	scene_yanhua_yuandan_001	0	0	0	EffectPoint	0	-1	1	0	0	0	0	0	0	5	0	648
603	下雪烟花特效	scene_yanhua_piaoxue_001	0	0	0	EffectPoint	0	-1	1	0	0	0	0	0	0	5	0	650
604	吊炸天烟花特效	scene_yanhua_shuangdan_001	0	0	0	EffectPoint	0	-1	1	0	0	0	0	0	0	5	0	651
605	兽神-饕餮狂暴buff	buff_kuangbao_002	0	0	0	EffectPoint	2	2	1	0	0	0	0	0	0	0	0	-1
606	青云武器特效-雕琢24级	weapen_jian_diaozhuo_001	0	0	0	WeaponR	1	-1	1	0	0	0	0	0	0	0	0	-1
607	鬼王武器特效-雕琢24级	weapen_ren_diaozhuo_001	0	0	0	WeaponR	1	-1	1	0	0	0	0	0	0	0	0	-1
608	天音武器特效-雕琢24级	weapen_zhang_diaozhuo_001	0	0	0	WeaponR	1	-1	1	0	0	0	0	0	0	0	0	-1
609	合欢武器特效-雕琢24级左手	weapen_huan_diaozhuo_001	0	0	0	WeaponL	1	-1	1	0	0	0	0	0	0	0	0	-1
610	合欢武器特效-雕琢24级右手	weapen_huan_diaozhuo_001	0	0	0	WeaponR	1	-1	1	0	0	0	0	0	180	0	0	-1
611	青云武器特效-雕琢38级	weapen_jian_diaozhuo_002	0	0	0	WeaponR	1	-1	1	0	0	0	0	0	0	0	0	-1
612	鬼王武器特效-雕琢38级	weapen_ren_diaozhuo_002	0	0	0	WeaponR	1	-1	1	0	0	0	0	0	0	0	0	-1
613	天音武器特效-雕琢38级	weapen_zhang_diaozhuo_002	0	0	0	WeaponR	1	-1	1	0	0	0	0	0	0	0	0	-1
614	合欢武器特效-雕琢38级左手	weapen_huan_diaozhuo_002	0	0	0	WeaponL	1	-1	1	0	0	0	0	0	0	0	0	-1
615	合欢武器特效-雕琢38级右手	weapen_huan_diaozhuo_002	0	0	0	WeaponR	1	-1	1	0	0	0	0	0	180	0	0	-1
616	青云武器特效-雕琢52级	weapen_jian_diaozhuo_003	0	0	0	WeaponR	1	-1	1	0	0	0	0	0	0	0	0	-1
617	鬼王武器特效-雕琢52级	weapen_ren_diaozhuo_003	0	0	0	WeaponR	1	-1	1	0	0	0	0	0	0	0	0	-1
618	天音武器特效-雕琢52级	weapen_zhang_diaozhuo_003	0	0	0	WeaponR	1	-1	1	0	0	0	0	0	0	0	0	-1
619	合欢武器特效-雕琢52级左手	weapen_huan_diaozhuo_003	0	0	0	WeaponL	1	-1	1	0	0	0	0	0	0	0	0	-1
620	合欢武器特效-雕琢52级右手	weapen_huan_diaozhuo_003	0	0	0	WeaponR	1	-1	1	0	0	0	0	0	180	0	0	-1
621	兽神-指引特效	scene_mubiaozhiyin_shoushen_001	0	0	0	EffectPoint	0	-1	0	0	0	0	0	0	0	0	0	-1
622	飞升开启UI特效	ui_feishengchenggong_001	0	0	0	EffectPoint	0	-1	0	0	0	3.8	0	180	0	4	0	607
623	王者争霸-攻击增加	buff_xianjing_001	0	0	0	EffectPoint	0	-1	0	0	0.1	0	0	0	0	0	0	-1
624	王者争霸-伤害减免	tongyong_yd_002	0	0	0	EffectPoint	0	-1	0	0	0.1	0	0	0	0	0	0	-1
625	相思入海烟花特效	scene_yanhua_xiangsiruhai_001	0	0	0	EffectPoint	0	-1	1	0	0	0	0	0	0	15	0	-1
626	天香锦瑟烟花特效	scene_yanhua_tianxiangjinse_001	0	0	0	EffectPoint	0	-1	1	0	0	0	0	0	0	15	0	-1
627	璀璨星河烟花特效	scene_yanhua_cuicanxinghe_001	0	0	0	EffectPoint	0	-1	1	0	0	0	0	0	0	15	0	-1
628	粉红记忆烟花特效	scene_yanhua_fenhongjiyi_001	0	0	0	EffectPoint	0	-1	1	0	0	0	0	0	0	15	0	-1
629	火树银花烟花特效	scene_yanhua_huoshuyinhua_001	0	0	0	EffectPoint	0	-1	1	0	0	0	0	0	0	15	0	-1
630	韶华绮梦烟花特效	scene_yanhua_shaohuaqimeng_001	0	0	0	EffectPoint	0	-1	1	0	0	0	0	0	0	15	0	-1
631	战斗力特效-1200W	tongyong_zhanlitexiao_zhong_cheng	0	0	0	EffectPoint	2	1	1	0	0	0	0	0	0	0	0	-1
632	战斗力特效-1400W	tongyong_zhanlitexiao_zhong_hong	0	0	0	EffectPoint	2	1	1	0	0	0	0	0	0	0	0	-1
633	夫妻副本箭头指引（入口-陷阱1）	scene_mubiaozhiyin_shoushen_001	0	0	0	EffectPoint	0	-1	0	0	0.2	0	0	90	0	0	0	-1
634	夫妻副本箭头指引（陷阱1-陷阱2）	scene_mubiaozhiyin_shoushen_001	0	0	0	EffectPoint	0	-1	0	0	0.2	0	0	77	0	0	0	-1
635	夫妻副本箭头指引（陷阱2-陷阱3）	scene_mubiaozhiyin_shoushen_001	0	0	0	EffectPoint	0	-1	0	0	0.2	0	-16	278	0	0	0	-1
636	夫妻副本箭头指引（陷阱3-陷阱4）	scene_mubiaozhiyin_shoushen_001	0	0	0	EffectPoint	0	-1	0	0	0.2	0	0	58	0	0	0	-1
637	夫妻副本箭头指引（陷阱4-陷阱5）	scene_mubiaozhiyin_shoushen_001	0	0	0	EffectPoint	0	-1	0	0	0.2	0	0	0	0	0	0	-1
638	修罗任务相位-心魔-梦之殇	boss_xionglingheihu_xuanfengzhan_001	0	0	0	EffectPoint	1	-1	1	0	1.2	0	0	0	0	0	0	-1
639	爆竹-施法	fb_baozhu_001	0	0	0	EffectPoint	0	-1	1	0	0.1	0.5	0	0	0	2	0	-1
640	爆竹-受击	fb_baozhu_attack_001	0	0	0	EffectPoint	2	-1	1	0	0	0	0	0	0	1	0	655
641	八凶玄火-兽炎	boss_zhulong_longyan_002	0.7	0	0	EffectPoint	0	-1	1	0	0	0	0	0	0	0.5	0	-1
642	八凶玄火-兽息	boss_zhulong_longxi_001	0.3	0	0	EffectPoint	0	-1	1	0	0	0	0	0	0	1.2	0	-1
643	八凶玄火-玄火1	boss_xuanhuoshou_xuanhuo_sf_001	0	0	0	EffectPoint	2	1	1	0	0	0	0	0	0	0	0	-1
644	八凶玄火-玄火2	boss_xuanhuoshou_xuanhuo_sf_003	0	0	0	EffectPoint	2	1	1	-2.35	0.1	1.94	0	0	0	0	0	-1
645	八凶玄火-玄火-持续	boss_xuanhuoshou_xuanhuo_sf_002	0.55	0	0	EffectPoint	2	1	1	0	0	0	0	0	0	0	0	-1
646	八凶玄火-八荒	boss_fulongding_001	0	0	0	EffectPoint	2	1	1	0	0	0	0	0	0	1.5	0	-1
647	八凶玄火-八荒-受击	boss_shixuepuzhi_shixue_002	0	0	0	EffectPoint	2	1	1	0	0	0	0	0	0	1.5	0	675
648	幻化特效	tongyong_huanhua_001	0	0	0	EffectPoint	2	-1	1	0	0	0	0	0	0	2	0	656
649	解除幻化特效	tongyong_huanhua_002	0	0	0	EffectPoint	2	-1	1	0	0	0	0	0	0	2	0	657
650	大世界破凶-瞿如-凤舞云回	boss_fengwuyunhui_001	0	0	0	EffectPoint	2	1	1	0	2.85	-1	0	0	0	2.5	0	678
651	大世界破凶-瞿如-磐石_loop	boss_baiseyaoshe_001	0	0	0	EffectPoint	2	1	1	0	0	0	0	0	0	0	0	-1
652	大世界破凶-瞿如-磐石_end	boss_baiseyaoshe_002	0	0	0	EffectPoint	2	1	1	0	0.1	0	0	0	0	0.45	0	-1
653	大世界破凶-鹿女-暴虎冯河_持续	boss_heiyan_001	0	0	0	EffectPoint	2	1	1	0	0	0	0	0	0	0	0	594
654	大世界破凶-鹿女-磐石_loop	boss_baiseyaoshe_001	0	0	0	EffectPoint	2	1	1	0	0	0	0	0	0	0	0	-1
655	大世界破凶-鹿女-磐石_end	boss_baiseyaoshe_002	0	0	0	EffectPoint	2	1	1	0	0.1	0	0	0	0	0.45	0	-1
656	大世界破凶-娲皇-寂灭灵心1	boss_yuren_aoe_001	0	0	0	EffectPoint	2	1	1	0	0	-1	0	0	0	0.5	0	-1
657	大世界破凶-娲皇-寂灭灵心2	boss_yuren_aoe_002	0	0	0	EffectPoint	2	1	1	0	0	3	0	0	0	1.5	0	-1
658	大世界破凶-娲皇-磐石_loop	boss_baiseyaoshe_001	0	0	0	EffectPoint	2	1	1	0	0	0	0	0	0	0	0	-1
659	大世界破凶-娲皇-磐石_end	boss_baiseyaoshe_002	0	0	0	EffectPoint	2	1	1	0	0.1	0	0	0	0	0.45	0	-1
660	大世界破凶-野人-鬼神震	boss_huotoutuo_huogong_002	0.45	0	0	EffectPoint	2	1	1	0	0.1	0	0	0	0	2.5	0	677
661	大世界破凶-野人-磐石_loop	boss_baiseyaoshe_001	0	0	0	EffectPoint	2	1	1	0	0	0	0	0	0	0	0	-1
662	大世界破凶-野人-磐石_end	boss_baiseyaoshe_002	0	0	0	EffectPoint	2	1	1	0	0.1	0	0	0	0	0.45	0	-1
663	战斗力特效-2000W	tongyong_zhanlitexiao_gao	0	0	0	EffectPoint	2	1	1	0	0	0	0	0	0	0	0	-1
664	战斗力特效-2300W	tongyong_zhanlitexiao_gao_02	0	0	0	EffectPoint	2	1	1	0	0	0	0	0	0	0	0	-1
